{
  "type": "FeatureCollection",
  "generator": "overpass-turbo",
  "copyright": "The data included in this document is from www.openstreetmap.org. The data is made available under ODbL.",
  "timestamp": "2026-02-19T21:41:58Z",
  "features": [
    {
      "type": "Feature",
      "properties": {
        "@id": "way/36952957",
        "addr:city": "Seattle",
        "addr:housenumber": "2305",
        "addr:postcode": "98112",
        "addr:street": "24th Avenue East",
        "amenity": "restaurant",
        "building": "yes",
        "cuisine": "italian",
        "name": "Caf√© Lago",
        "phone": "+1-206-329-8005",
        "source": "King County GIS;data.seattle.gov;knowledge",
        "website": "https://cafelago.com/",
        "@geometry": "center"
      },
      "geometry": {
        "type": "Point",
        "coordinates": [
          -122.3023474,
          47.6396934
        ]
      },
      "id": "way/36952957"
    },
    {
      "type": "Feature",
      "properties": {
        "@id": "node/60665830",
        "addr:city": "Seattle",
        "addr:country": "US",
        "addr:housenumber": "4002",
        "addr:postcode": "98105",
        "addr:state": "WA",
        "addr:street": "University Way Northeast",
        "amenity": "restaurant",
        "check_date": "2024-07-24",
        "contact:phone": "+1-206-566-5136",
        "contact:yelp": "https://www.yelp.com/biz/basil-viet-kitchen-seattle?osq=Basil+Viet+Kitchen",
        "cuisine": "thai;vietnamese",
        "diet:vegan": "yes",
        "diet:vegetarian": "yes",
        "name": "Basil Viet Kitchen",
        "opening_hours": "Mo-Fr 11:00-21:00; Sa-Su 11:00-20:00",
        "outdoor_seating": "no"
      },
      "geometry": {
        "type": "Point",
        "coordinates": [
          -122.3131495,
          47.6554523
        ]
      },
      "id": "node/60665830"
    },
    {
      "type": "Feature",
      "properties": {
        "@id": "way/217449273",
        "addr:city": "Seattle",
        "addr:housenumber": "8305",
        "addr:postcode": "98117",
        "addr:state": "WA",
        "addr:street": "15th Avenue Northwest",
        "amenity": "restaurant",
        "building": "yes",
        "check_date": "2025-05-12",
        "cuisine": "thai",
        "name": "Thai Siam",
        "note": "Reopening 2025-05-14",
        "phone": "+1-206-784-5465",
        "website": "https://www.thaisiamrestaurant.com",
        "wheelchair": "yes",
        "@geometry": "center"
      },
      "geometry": {
        "type": "Point",
        "coordinates": [
          -122.3771852,
          47.688871
        ]
      },
      "id": "way/217449273"
    },
    {
      "type": "Feature",
      "properties": {
        "@id": "way/220924132",
        "addr:city": "Seattle",
        "addr:housenumber": "2615",
        "addr:postcode": "98115",
        "addr:street": "Northeast 65th Street",
        "amenity": "restaurant",
        "building": "yes",
        "check_date:opening_hours": "2024-07-15",
        "cuisine": "italian",
        "name": "Zouave",
        "opening_hours:signed": "no",
        "source": "King County GIS;data.seattle.gov",
        "website": "https://www.zouaverestaurant.com/",
        "@geometry": "center"
      },
      "geometry": {
        "type": "Point",
        "coordinates": [
          -122.2987567,
          47.6756571
        ]
      },
      "id": "way/220924132"
    },
    {
      "type": "Feature",
      "properties": {
        "@id": "way/221921385",
        "addr:city": "Seattle",
        "addr:housenumber": "1625",
        "addr:postcode": "98119",
        "addr:state": "WA",
        "addr:street": "West Dravus Street",
        "amenity": "restaurant",
        "building": "yes",
        "cuisine": "thai",
        "name": "Tuk Tuk Thai",
        "source": "knowledge;King County GIS;data.seattle.gov",
        "website": "https://www.pandasia.com/",
        "@geometry": "center"
      },
      "geometry": {
        "type": "Point",
        "coordinates": [
          -122.3785398,
          47.6482593
        ]
      },
      "id": "way/221921385"
    },
    {
      "type": "Feature",
      "properties": {
        "@id": "way/222410688",
        "addr:city": "Seattle",
        "addr:housenumber": "6705",
        "addr:postcode": "98103",
        "addr:state": "WA",
        "addr:street": "Greenwood Avenue North",
        "amenity": "restaurant",
        "building": "yes",
        "cuisine": "thai",
        "indoor_seating": "yes",
        "name": "Mai Thaiku",
        "outdoor_seating": "yes",
        "source": "King County GIS;data.seattle.gov",
        "@geometry": "center"
      },
      "geometry": {
        "type": "Point",
        "coordinates": [
          -122.3556742,
          47.6780459
        ]
      },
      "id": "way/222410688"
    },
    {
      "type": "Feature",
      "properties": {
        "@id": "way/224037411",
        "addr:city": "Seattle",
        "addr:housenumber": "1307",
        "addr:postcode": "98103",
        "addr:street": "North 46th Street",
        "amenity": "restaurant",
        "building": "yes",
        "check_date": "2024-05-12",
        "cuisine": "italian",
        "diet:vegetarian": "yes",
        "name": "Bizzarro",
        "official_name": "Bizzarro Italian Cafe",
        "opening_hours": "17:00-22:00",
        "phone": "+1-206-632-7277",
        "source": "King County GIS;data.seattle.gov",
        "website": "https://www.bizzarroitaliancafe.com/",
        "wheelchair": "yes",
        "wikidata": "Q123291730",
        "@geometry": "center"
      },
      "geometry": {
        "type": "Point",
        "coordinates": [
          -122.3416761,
          47.6619716
        ]
      },
      "id": "way/224037411"
    },
    {
      "type": "Feature",
      "properties": {
        "@id": "way/224037472",
        "addr:city": "Seattle",
        "addr:housenumber": "1612",
        "addr:postcode": "98103",
        "addr:street": "North 45th Street",
        "amenity": "restaurant",
        "building": "yes",
        "building:levels": "2",
        "check_date": "2025-11-14",
        "contact:facebook": "108679743923706",
        "contact:instagram": "sisikaythai",
        "cuisine": "thai",
        "email": "mcp.anthony@gmail.com",
        "name": "Sisi Kay Thai",
        "opening_hours": "Mo, Th 11:00-21:30; Tu 11:00-20:00; Fr 11:00-22:00; Sa 12:00-22:00; Su 00:00-21:30",
        "phone": "+1-206-659-4382",
        "self_service": "no",
        "website": "https://sisikayseattle.com/",
        "website:menu": "https://sisikayseattle.com/seattle-roosevelt-sisi-kay-thai-eatery-and-bar-food-menu",
        "@geometry": "center"
      },
      "geometry": {
        "type": "Point",
        "coordinates": [
          -122.338549,
          47.6616331
        ]
      },
      "id": "way/224037472"
    },
    {
      "type": "Feature",
      "properties": {
        "@id": "way/231348585",
        "addr:city": "Seattle",
        "addr:housenumber": "3520",
        "addr:postcode": "98126",
        "addr:state": "WA",
        "addr:street": "Southwest Genesee Street",
        "amenity": "restaurant",
        "building": "yes",
        "check_date": "2025-12-19",
        "cuisine": "thai",
        "name": "Buddha Ruksa",
        "opening_hours": "Tu-Th 11:00-21:00; Fr 11:00-21:30; Sa,Su 16:00-21:30",
        "source": "King County GIS;data.seattle.gov",
        "website": "https://buddharuksa.com/",
        "@geometry": "center"
      },
      "geometry": {
        "type": "Point",
        "coordinates": [
          -122.3772252,
          47.5648618
        ]
      },
      "id": "way/231348585"
    },
    {
      "type": "Feature",
      "properties": {
        "@id": "way/231753352",
        "addr:city": "Seattle",
        "addr:housenumber": "352",
        "addr:postcode": "98109",
        "addr:state": "WA",
        "addr:street": "Roy Street",
        "amenity": "restaurant",
        "building": "yes",
        "contact:facebook": "basilicqueenanne",
        "cuisine": "thai",
        "email": "basilicqueenanne@gmail.com",
        "name": "Basilic",
        "phone": "+1-206-457-4675",
        "self_service": "no",
        "website": "https://www.basilicqueenanne.com/",
        "website:menu": "https://order.chownow.com/order/7195/locations/16163",
        "@geometry": "center"
      },
      "geometry": {
        "type": "Point",
        "coordinates": [
          -122.3499259,
          47.6255872
        ]
      },
      "id": "way/231753352"
    },
    {
      "type": "Feature",
      "properties": {
        "@id": "way/231753398",
        "addr:city": "Seattle",
        "addr:housenumber": "409",
        "addr:postcode": "98109",
        "addr:state": "WA",
        "addr:street": "Roy Street",
        "amenity": "restaurant",
        "building": "yes",
        "cuisine": "thai",
        "name": "Bahn Thai",
        "phone": "+1-206-283-0444",
        "source": "King County GIS;data.seattle.gov",
        "website": "https://www.bahnthaimenu.com/",
        "@geometry": "center"
      },
      "geometry": {
        "type": "Point",
        "coordinates": [
          -122.3483709,
          47.6252475
        ]
      },
      "id": "way/231753398"
    },
    {
      "type": "Feature",
      "properties": {
        "@id": "way/233293290",
        "addr:city": "Seattle",
        "addr:housenumber": "2717",
        "addr:postcode": "98116",
        "addr:state": "WA",
        "addr:street": "61st Avenue Southwest",
        "amenity": "restaurant",
        "building": "yes",
        "cuisine": "italian",
        "historic": "building",
        "name": "Alki Homestead",
        "old_name": "Fir Lodge",
        "source": "King County GIS;data.seattle.gov",
        "start_date": "1904",
        "website": "https://ilnidoseattle.com",
        "wikidata": "Q105038388",
        "@geometry": "center"
      },
      "geometry": {
        "type": "Point",
        "coordinates": [
          -122.4111061,
          47.5785227
        ]
      },
      "id": "way/233293290"
    },
    {
      "type": "Feature",
      "properties": {
        "@id": "way/235232691",
        "addr:city": "Seattle",
        "addr:housenumber": "11749",
        "addr:postcode": "98125",
        "addr:street": "15th Avenue Northeast",
        "amenity": "restaurant",
        "building": "yes",
        "cuisine": "thai",
        "name": "Chaiyo Thai",
        "source": "King County GIS;data.seattle.gov",
        "takeaway": "yes",
        "@geometry": "center"
      },
      "geometry": {
        "type": "Point",
        "coordinates": [
          -122.3128347,
          47.7154355
        ]
      },
      "id": "way/235232691"
    },
    {
      "type": "Feature",
      "properties": {
        "@id": "way/235379542",
        "addr:city": "Seattle",
        "addr:housenumber": "7115",
        "addr:postcode": "98115",
        "addr:street": "Roosevelt Way Northeast",
        "amenity": "restaurant",
        "building": "yes",
        "check_date": "2025-10-03",
        "cuisine": "italian",
        "indoor_seating": "yes",
        "name": "Brunello Ristorante",
        "outdoor_seating": "yes",
        "source": "King County GIS;data.seattle.gov",
        "@geometry": "center"
      },
      "geometry": {
        "type": "Point",
        "coordinates": [
          -122.3176709,
          47.6806399
        ]
      },
      "id": "way/235379542"
    },
    {
      "type": "Feature",
      "properties": {
        "@id": "way/236494273",
        "addr:city": "Seattle",
        "addr:housenumber": "2223",
        "addr:postcode": "98116",
        "addr:state": "WA",
        "addr:street": "California Avenue Southwest",
        "amenity": "restaurant",
        "building": "yes",
        "cuisine": "thai",
        "name": "Spring House Thai Kitchen & Pho",
        "note": "Limited parking in back alley.",
        "opening_hours": "Mo-Tu 15:00-22:00; We-Fr 11:30-22:00; Sa-Su 12:00-22:00",
        "phone": "+1-206-937-8807",
        "source": "King County GIS;data.seattle.gov",
        "takeaway": "yes",
        "website": "https://springhousethaikitchenandpho.com/",
        "@geometry": "center"
      },
      "geometry": {
        "type": "Point",
        "coordinates": [
          -122.3868672,
          47.5833591
        ]
      },
      "id": "way/236494273"
    },
    {
      "type": "Feature",
      "properties": {
        "@id": "way/236747535",
        "addr:city": "Seattle",
        "addr:housenumber": "7500",
        "addr:postcode": "98126",
        "addr:state": "WA",
        "addr:street": "35th Avenue Southwest",
        "amenity": "restaurant",
        "building": "yes",
        "cuisine": "italian",
        "name": "G. H. Pasta & Pizza",
        "source": "King County GIS;data.seattle.gov",
        "@geometry": "center"
      },
      "geometry": {
        "type": "Point",
        "coordinates": [
          -122.3762845,
          47.5353921
        ]
      },
      "id": "way/236747535"
    },
    {
      "type": "Feature",
      "properties": {
        "@id": "way/360439966",
        "addr:city": "Seattle",
        "addr:housenumber": "503",
        "addr:postcode": "98104",
        "addr:state": "WA",
        "addr:street": "South Weller Street",
        "amenity": "restaurant",
        "check_date": "2023-09-03",
        "cuisine": "thai",
        "indoor": "room",
        "level": "0",
        "name": "Thai Place",
        "opening_hours": "Mo-Su 11:00-18:00",
        "phone": "+1-206-749-5451",
        "source": "King County GIS;data.seattle.gov",
        "website": "https://www.uwajimayaseattle.com/staging/retailer/thai-place/",
        "@geometry": "center"
      },
      "geometry": {
        "type": "Point",
        "coordinates": [
          -122.3273947,
          47.5973958
        ]
      },
      "id": "way/360439966"
    },
    {
      "type": "Feature",
      "properties": {
        "@id": "way/434605699",
        "addr:city": "Seattle",
        "addr:country": "US",
        "addr:housenumber": "524",
        "addr:postcode": "98112",
        "addr:state": "WA",
        "addr:street": "15th Avenue East",
        "amenity": "restaurant",
        "building": "retail",
        "check_date": "2025-05-08",
        "check_date:opening_hours": "2025-05-08",
        "cuisine": "thai",
        "indoor_seating": "yes",
        "name": "The Patio",
        "opening_hours:signed": "no",
        "outdoor_seating": "yes",
        "@geometry": "center"
      },
      "geometry": {
        "type": "Point",
        "coordinates": [
          -122.3123408,
          47.6240448
        ]
      },
      "id": "way/434605699"
    },
    {
      "type": "Feature",
      "properties": {
        "@id": "node/441510194",
        "addr:city": "Seattle",
        "addr:housenumber": "2768",
        "addr:postcode": "98116",
        "addr:state": "WA",
        "addr:street": "Alki Avenue Southwest",
        "amenity": "restaurant",
        "check_date": "2024-06-01",
        "cuisine": "thai",
        "name": "Lotus on the Beach"
      },
      "geometry": {
        "type": "Point",
        "coordinates": [
          -122.4116777,
          47.5786654
        ]
      },
      "id": "node/441510194"
    },
    {
      "type": "Feature",
      "properties": {
        "@id": "node/457773035",
        "addr:city": "Seattle",
        "addr:housenumber": "3311",
        "addr:postcode": "98199",
        "addr:street": "West McGraw Street",
        "amenity": "restaurant",
        "cuisine": "thai",
        "name": "Kinnaree",
        "source": "King County GIS;data.seattle.gov"
      },
      "geometry": {
        "type": "Point",
        "coordinates": [
          -122.4001996,
          47.639426
        ]
      },
      "id": "node/457773035"
    },
    {
      "type": "Feature",
      "properties": {
        "@id": "node/458623718",
        "addr:city": "Seattle",
        "addr:housenumber": "3111",
        "addr:postcode": "98199",
        "addr:street": "West McGraw Street",
        "addr:unit": "103",
        "amenity": "restaurant",
        "cuisine": "italian",
        "name": "Smoking Monkey Pizza",
        "website": "https://www.smokingmonkeypizza.com"
      },
      "geometry": {
        "type": "Point",
        "coordinates": [
          -122.3976471,
          47.639223
        ]
      },
      "id": "node/458623718"
    },
    {
      "type": "Feature",
      "properties": {
        "@id": "node/459169511",
        "addr:city": "Seattle",
        "addr:housenumber": "2425",
        "addr:postcode": "98199",
        "addr:state": "WA",
        "addr:street": "33rd Avenue West",
        "addr:unit": "3",
        "amenity": "restaurant",
        "check_date": "2024-10-09",
        "check_date:exists": "2021-06-13",
        "cuisine": "italian",
        "delivery": "no",
        "name": "Mondello Ristorante",
        "opening_hours": "Mo-Th 11:30-14:30,17:00-21:30; Fr-Sa 11:30-14:30,17:00-22:00; Su 17:00-21:30",
        "payment:cash": "yes",
        "payment:credit_cards": "yes",
        "payment:debit_cards": "yes",
        "phone": "+1-206-352-8700",
        "smoking": "no",
        "takeaway": "yes",
        "website": "https://mondelloristorante.com/",
        "wheelchair": "yes"
      },
      "geometry": {
        "type": "Point",
        "coordinates": [
          -122.399799,
          47.6402279
        ]
      },
      "id": "node/459169511"
    },
    {
      "type": "Feature",
      "properties": {
        "@id": "node/477872229",
        "addr:city": "Seattle",
        "addr:housenumber": "6411",
        "addr:postcode": "98115",
        "addr:street": "Latona Avenue Northeast",
        "amenity": "restaurant",
        "check_date": "2023-08-31",
        "cuisine": "thai",
        "name": "Smile Thai Cuisine",
        "source": "King County GIS;data.seattle.gov"
      },
      "geometry": {
        "type": "Point",
        "coordinates": [
          -122.3256061,
          47.6755809
        ]
      },
      "id": "node/477872229"
    },
    {
      "type": "Feature",
      "properties": {
        "@id": "node/1158403590",
        "addr:city": "Seattle",
        "addr:housenumber": "4543",
        "addr:postcode": "98105",
        "addr:street": "University Way Northeast",
        "amenity": "restaurant",
        "check_date": "2025-11-21",
        "contact:instagram": "thaitomave",
        "cuisine": "thai",
        "diet:vegetarian": "yes",
        "name": "Thai Tom",
        "opening_hours": "Mo-Sa 11:30-21:00; Su 12:00-21:00",
        "outdoor_seating": "no",
        "phone": "+1-206-548-9548",
        "self_service": "no",
        "website": "https://thaitomseattle.com/",
        "website:menu": "https://thaitomseattle.com/menu"
      },
      "geometry": {
        "type": "Point",
        "coordinates": [
          -122.3132911,
          47.6625207
        ]
      },
      "id": "node/1158403590"
    },
    {
      "type": "Feature",
      "properties": {
        "@id": "way/1219903677",
        "addr:city": "Seattle",
        "addr:country": "US",
        "addr:housenumber": "12534",
        "addr:postcode": "98133",
        "addr:state": "WA",
        "addr:street": "Aurora Avenue North",
        "amenity": "restaurant",
        "building": "retail",
        "cuisine": "thai",
        "name": "Eat & Go Thai Street Food",
        "phone": "+1-206-257-5978",
        "website": "https://eatandgothai.com/",
        "@geometry": "center"
      },
      "geometry": {
        "type": "Point",
        "coordinates": [
          -122.3445536,
          47.720574
        ]
      },
      "id": "way/1219903677"
    },
    {
      "type": "Feature",
      "properties": {
        "@id": "node/1248749815",
        "addr:city": "Seattle",
        "addr:housenumber": "3410",
        "addr:postcode": "98103",
        "addr:street": "Fremont Avenue North",
        "amenity": "restaurant",
        "check_date": "2024-02-06",
        "cuisine": "thai",
        "name": "Sabbverr",
        "old_name": "Zappverr",
        "source": "King County GIS",
        "website": "https://zapverr.com/"
      },
      "geometry": {
        "type": "Point",
        "coordinates": [
          -122.3495767,
          47.6499101
        ]
      },
      "id": "node/1248749815"
    },
    {
      "type": "Feature",
      "properties": {
        "@id": "node/1248840408",
        "addr:city": "Seattle",
        "addr:housenumber": "404",
        "addr:postcode": "98103",
        "addr:street": "North 36th Street",
        "amenity": "restaurant",
        "check_date": "2025-01-25",
        "contact:phone": "+1-206-925-9979",
        "cuisine": "thai",
        "diet:vegan": "yes",
        "diet:vegetarian": "yes",
        "name": "Kaosamai",
        "opening_hours": "Mo-Fr 11:00-21:00; Sa,Su 12:00-21:00",
        "website": "https://www.kaosamai.com/"
      },
      "geometry": {
        "type": "Point",
        "coordinates": [
          -122.3540934,
          47.6523605
        ]
      },
      "id": "node/1248840408"
    },
    {
      "type": "Feature",
      "properties": {
        "@id": "node/1292326964",
        "addr:city": "Seattle",
        "addr:housenumber": "1718",
        "addr:postcode": "98103",
        "addr:street": "North 45th Street",
        "amenity": "restaurant",
        "check_date": "2025-10-26",
        "cuisine": "thai",
        "diet:vegan": "yes",
        "diet:vegetarian": "only",
        "name": "45th Vegetarian Thai",
        "opening_hours": "Mo-Su 11:00-15:00, 16:00-21:00",
        "source": "King County GIS;data.seattle.gov",
        "website": "https://www.45thvegetarianthai.com"
      },
      "geometry": {
        "type": "Point",
        "coordinates": [
          -122.3367749,
          47.6615191
        ]
      },
      "id": "node/1292326964"
    },
    {
      "type": "Feature",
      "properties": {
        "@id": "node/1298729750",
        "addr:city": "Seattle",
        "addr:housenumber": "6417",
        "addr:postcode": "98115",
        "addr:street": "Roosevelt Way Northeast",
        "addr:unit": "201",
        "amenity": "restaurant",
        "check_date": "2025-11-22",
        "checked_exists:date": "2016-10-18",
        "cuisine": "thai",
        "diet:vegetarian": "yes",
        "name": "Royal Palm",
        "opening_hours": "Mo-Sa 12:00-15:00,16:00-21:00; Su off",
        "payment:cash": "yes",
        "payment:credit_cards": "yes",
        "payment:debit_cards": "yes",
        "phone": "+1 206-523-2400",
        "source": "King County GIS;data.seattle.gov",
        "website": "https://royalpalmseattle.com/",
        "wheelchair": "yes"
      },
      "geometry": {
        "type": "Point",
        "coordinates": [
          -122.3175045,
          47.6756157
        ]
      },
      "id": "node/1298729750"
    },
    {
      "type": "Feature",
      "properties": {
        "@id": "node/1411680620",
        "addr:city": "Seattle",
        "addr:housenumber": "4214",
        "addr:postcode": "98105",
        "addr:street": "University Way Northeast",
        "amenity": "restaurant",
        "check_date": "2025-11-21",
        "cuisine": "thai",
        "name": "Jai Thai"
      },
      "geometry": {
        "type": "Point",
        "coordinates": [
          -122.3130382,
          47.6587941
        ]
      },
      "id": "node/1411680620"
    },
    {
      "type": "Feature",
      "properties": {
        "@id": "node/1539274997",
        "addr:city": "Seattle",
        "addr:housenumber": "509",
        "addr:postcode": "98112",
        "addr:street": "15th Avenue East",
        "air_conditioning": "yes",
        "amenity": "restaurant",
        "check_date": "2025-06-06",
        "check_date:opening_hours": "2025-06-06",
        "checked_exists:date": "2021-11-22",
        "cuisine": "thai",
        "name": "Jamjuree",
        "opening_hours": "Mo-Su 11:30-21:00",
        "outdoor_seating": "yes",
        "source": "King County GIS",
        "website": "https://www.jamjuree.com/"
      },
      "geometry": {
        "type": "Point",
        "coordinates": [
          -122.3128279,
          47.6234297
        ]
      },
      "id": "node/1539274997"
    },
    {
      "type": "Feature",
      "properties": {
        "@id": "node/1597141275",
        "addr:city": "Seattle",
        "addr:housenumber": "3416",
        "addr:postcode": "98103",
        "addr:street": "Fremont Avenue North",
        "amenity": "restaurant",
        "check_date": "2024-05-07",
        "cuisine": "italian",
        "name": "Esters Enoteca",
        "opening_hours": "We-Sa 17:00-18:00+",
        "phone": "+1-206-295-1903",
        "source": "King County GIS",
        "website": "https://www.estersenoteca.com",
        "wheelchair": "yes"
      },
      "geometry": {
        "type": "Point",
        "coordinates": [
          -122.3496228,
          47.6501282
        ]
      },
      "id": "node/1597141275"
    },
    {
      "type": "Feature",
      "properties": {
        "@id": "node/1669418041",
        "addr:city": "Seattle",
        "addr:housenumber": "469",
        "addr:postcode": "98103",
        "addr:street": "North 36th Street",
        "amenity": "restaurant",
        "check_date": "2025-01-25",
        "cuisine": "thai",
        "diet:vegan": "yes",
        "diet:vegetarian": "yes",
        "name": "Kwanjai Thai",
        "opening_hours": "Mo-Tu 11:00-21:30; Fr 11:00-22:00; Sa 12:00-22:00; Su 12:00-21:30",
        "phone": "+1-206-632-3656",
        "source": "King County GIS",
        "website": "https://kwanjaithaicuisine.com/"
      },
      "geometry": {
        "type": "Point",
        "coordinates": [
          -122.3526101,
          47.6516655
        ]
      },
      "id": "node/1669418041"
    },
    {
      "type": "Feature",
      "properties": {
        "@id": "node/1695049650",
        "addr:city": "Seattle",
        "addr:housenumber": "3650",
        "addr:postcode": "98103",
        "addr:street": "Wallingford Avenue North",
        "amenity": "restaurant",
        "check_date": "2024-01-03",
        "cuisine": "italian",
        "name": "Cantinetta",
        "opening_hours": "Tu-Su 17:00-21:00",
        "phone": "+1-206-632-1000",
        "website": "https://www.cantinettausa.com/"
      },
      "geometry": {
        "type": "Point",
        "coordinates": [
          -122.3361496,
          47.6518718
        ]
      },
      "id": "node/1695049650"
    },
    {
      "type": "Feature",
      "properties": {
        "@id": "node/1729930560",
        "addr:city": "Seattle",
        "addr:housenumber": "4918",
        "addr:postcode": "98118",
        "addr:street": "Rainier Avenue South",
        "amenity": "restaurant",
        "branch": "Columbia City",
        "check_date": "2025-01-12",
        "cuisine": "pizza;italian",
        "email": "columbiacity@tuttabella.com",
        "name": "Tutta Bella",
        "opening_hours": "Mo-Su 11:00-22:00",
        "phone": "+1-206-721-3501",
        "source": "King County GIS;data.seattle.gov",
        "website": "https://www.tuttabella.com/location/tutta-bella-columbia-city/"
      },
      "geometry": {
        "type": "Point",
        "coordinates": [
          -122.2845232,
          47.5572106
        ]
      },
      "id": "node/1729930560"
    },
    {
      "type": "Feature",
      "properties": {
        "@id": "node/1730897376",
        "addr:city": "Seattle",
        "addr:housenumber": "2307",
        "addr:postcode": "98102",
        "addr:street": "Eastlake Avenue East",
        "amenity": "restaurant",
        "cuisine": "italian",
        "diet:vegetarian": "yes",
        "name": "Pazzo's Pizza & Bar",
        "opening_hours": "Mo-Su 11:00-02:00",
        "phone": "+1-206-329-6558",
        "takeaway": "yes",
        "website": "https://www.pazzosoneastlake.com/"
      },
      "geometry": {
        "type": "Point",
        "coordinates": [
          -122.3260795,
          47.6400585
        ]
      },
      "id": "node/1730897376"
    },
    {
      "type": "Feature",
      "properties": {
        "@id": "node/1735549633",
        "addr:city": "Seattle",
        "addr:housenumber": "8523",
        "addr:postcode": "98103",
        "addr:street": "Greenwood Avenue North",
        "amenity": "restaurant",
        "check_date": "2025-10-27",
        "check_date:opening_hours": "2025-10-27",
        "cuisine": "pizza;italian",
        "diet:gluten_free": "yes",
        "diet:vegan": "yes",
        "diet:vegetarian": "yes",
        "name": "Razzi's Pizzeria",
        "opening_hours": "Mo-Th,Su 11:00-23:00; Fr-Sa 11:00-24:00",
        "source": "King County GIS;data.seattle.gov",
        "website": "http://razzis.com"
      },
      "geometry": {
        "type": "Point",
        "coordinates": [
          -122.355518,
          47.6911513
        ]
      },
      "id": "node/1735549633"
    },
    {
      "type": "Feature",
      "properties": {
        "@id": "node/1735873003",
        "amenity": "restaurant",
        "contact:phone": "+1-206-760-3400",
        "cuisine": "italian_pizza",
        "name": "Mioposto",
        "website": "https://www.miopostopizza.com/mtbaker"
      },
      "geometry": {
        "type": "Point",
        "coordinates": [
          -122.2880998,
          47.5782015
        ]
      },
      "id": "node/1735873003"
    },
    {
      "type": "Feature",
      "properties": {
        "@id": "node/1735895518",
        "addr:city": "Seattle",
        "addr:housenumber": "1531",
        "addr:postcode": "98122",
        "addr:street": "14th Avenue",
        "amenity": "restaurant",
        "cuisine": "italian",
        "name": "Cascina Spinasse",
        "phone": "+1-206-251-7673",
        "website": "https://spinasse.com/",
        "wikidata": "Q115518361"
      },
      "geometry": {
        "type": "Point",
        "coordinates": [
          -122.3143994,
          47.6150591
        ]
      },
      "id": "node/1735895518"
    },
    {
      "type": "Feature",
      "properties": {
        "@id": "node/1735895560",
        "addr:city": "Seattle",
        "addr:housenumber": "1412",
        "addr:postcode": "98122",
        "addr:street": "East Union Street",
        "amenity": "restaurant",
        "cuisine": "thai",
        "name": "8 Ping Yang",
        "source": "King County GIS;data.seattle.gov",
        "website": "https://8pingyang.com"
      },
      "geometry": {
        "type": "Point",
        "coordinates": [
          -122.3135826,
          47.6130656
        ]
      },
      "id": "node/1735895560"
    },
    {
      "type": "Feature",
      "properties": {
        "@id": "node/1774033170",
        "addr:city": "Seattle",
        "addr:housenumber": "1190",
        "addr:postcode": "98109",
        "addr:state": "WA",
        "addr:street": "Thomas Street",
        "amenity": "restaurant",
        "craft": "caterer",
        "cuisine": "thai",
        "delivery": "yes",
        "diet:vegan": "only",
        "name": "Kati Vegan Thai",
        "name:en": "Kati Vegan Thai",
        "opening_hours": "Su-Th 11:30-15:00, 16:30-21:00; Fr-Sa 11:30-15:00, 16:30-22:00",
        "source": "knowledge",
        "takeaway": "yes",
        "website": "https://www.kativeganthai.com/"
      },
      "geometry": {
        "type": "Point",
        "coordinates": [
          -122.3332743,
          47.6209307
        ]
      },
      "id": "node/1774033170"
    },
    {
      "type": "Feature",
      "properties": {
        "@id": "node/1886260350",
        "amenity": "restaurant",
        "cuisine": "italian",
        "name": "La Rustica"
      },
      "geometry": {
        "type": "Point",
        "coordinates": [
          -122.4093461,
          47.5674149
        ]
      },
      "id": "node/1886260350"
    },
    {
      "type": "Feature",
      "properties": {
        "@id": "node/1904598347",
        "addr:city": "Seattle",
        "addr:housenumber": "3423",
        "addr:postcode": "98103",
        "addr:street": "Fremont Avenue North",
        "amenity": "restaurant",
        "check_date": "2023-07-22",
        "cuisine": "thai",
        "diet:dairy_free": "yes",
        "diet:vegetarian": "yes",
        "name": "Jai Thai",
        "opening_hours": "12:00-21:00",
        "phone": "+1-206-632-7060",
        "reservation": "yes",
        "source": "King County GIS",
        "website": "https://jaithairestaurant.com/",
        "wheelchair": "yes"
      },
      "geometry": {
        "type": "Point",
        "coordinates": [
          -122.3500891,
          47.6503182
        ]
      },
      "id": "node/1904598347"
    },
    {
      "type": "Feature",
      "properties": {
        "@id": "node/1975835344",
        "addr:city": "Seattle",
        "addr:housenumber": "401",
        "addr:postcode": "98112",
        "addr:street": "15th Avenue East",
        "amenity": "restaurant",
        "cuisine": "italian",
        "indoor_seating": "yes",
        "name": "Rione XIII",
        "opening_hours": "Mo-Su 16:00-20:00+",
        "outdoor_seating": "yes",
        "source": "Local knowledge",
        "website": "http://ethanstowellrestaurants.com/rionexiii/",
        "wikidata": "Q114771151",
        "wikimedia_commons": "File:January 2023, Seattle, Washington, U.S. - 213.jpg"
      },
      "geometry": {
        "type": "Point",
        "coordinates": [
          -122.31283,
          47.6220796
        ]
      },
      "id": "node/1975835344"
    },
    {
      "type": "Feature",
      "properties": {
        "@id": "node/1981751150",
        "addr:city": "Seattle",
        "addr:country": "US",
        "addr:housenumber": "23",
        "addr:postcode": "98109",
        "addr:state": "WA",
        "addr:street": "Mercer Street",
        "amenity": "restaurant",
        "check_date": "2025-12-14",
        "cuisine": "italian",
        "name": "Messina",
        "official_name": "Messina Modern Italian Kitchen",
        "source": "knowledge;King County GIS;data.seattle.gov"
      },
      "geometry": {
        "type": "Point",
        "coordinates": [
          -122.3556307,
          47.6244409
        ]
      },
      "id": "node/1981751150"
    },
    {
      "type": "Feature",
      "properties": {
        "@id": "node/2015644408",
        "addr:city": "Seattle",
        "addr:housenumber": "2125",
        "addr:postcode": "98109",
        "addr:street": "Queen Anne Avenue North",
        "amenity": "restaurant",
        "branch": "Queen Anne",
        "check_date": "2024-06-20",
        "cuisine": "thai",
        "name": "Isarn Thai Soul Kitchen",
        "short_name": "Isarn",
        "website": "https://isarnkitchen.com"
      },
      "geometry": {
        "type": "Point",
        "coordinates": [
          -122.3571118,
          47.6379528
        ]
      },
      "id": "node/2015644408"
    },
    {
      "type": "Feature",
      "properties": {
        "@id": "node/2019051184",
        "addr:city": "Seattle",
        "addr:housenumber": "2208",
        "addr:postcode": "98109",
        "addr:street": "Queen Anne Avenue North",
        "amenity": "restaurant",
        "check_date": "2024-12-18",
        "checked_exists:date": "2023-03-25",
        "contact:facebook": "howtocookwolf",
        "contact:instagram": "htcawolf",
        "cuisine": "italian",
        "level": "0",
        "name": "How to Cook a Wolf - Queen Anne",
        "opening_hours": "Su-Th 16:00-22:00; Fr-Sa 16:00-23:00",
        "phone": "+1-206-838-8090",
        "self_service": "no",
        "website": "https://ethanstowellrestaurants.com/restaurants/how-to-cook-a-wolf-queen-anne-seattle"
      },
      "geometry": {
        "type": "Point",
        "coordinates": [
          -122.3567358,
          47.6387102
        ]
      },
      "id": "node/2019051184"
    },
    {
      "type": "Feature",
      "properties": {
        "@id": "node/2019051190",
        "addr:city": "Seattle",
        "addr:housenumber": "10",
        "addr:postcode": "98109",
        "addr:street": "Boston Street",
        "amenity": "restaurant",
        "bar": "yes",
        "check_date": "2024-06-20",
        "checked_exists:date": "2023-03-25",
        "city": "Seattle",
        "cuisine": "thai",
        "name": "Orrapin",
        "opening_hours": "Tu-Fr 12:00-20:45 Sa 16:00-20:45 Su 12:00-20:45",
        "outdoor_seating": "yes",
        "phone": "+1-206-283-7118",
        "toilets": "yes",
        "website": "https://www.orrapinthaicuisine.com"
      },
      "geometry": {
        "type": "Point",
        "coordinates": [
          -122.3564728,
          47.6385109
        ]
      },
      "id": "node/2019051190"
    },
    {
      "type": "Feature",
      "properties": {
        "@id": "node/2061048099",
        "addr:city": "Seattle",
        "addr:housenumber": "2101",
        "addr:postcode": "98103",
        "addr:street": "North 45th Street",
        "amenity": "restaurant",
        "contact:phone": "+1-206-632-2300",
        "cuisine": "thai",
        "delivery": "yes",
        "name": "Silver Tray",
        "opening_hours": "Mo,We-Fr 11:00-21:30; Sa-Su 12:00-21:30",
        "source": "local knowledge",
        "takeaway": "yes",
        "toilets:wheelchair": "yes",
        "website": "http://silvertraythai.com/main.html",
        "wheelchair": "yes"
      },
      "geometry": {
        "type": "Point",
        "coordinates": [
          -122.333602,
          47.6612769
        ]
      },
      "id": "node/2061048099"
    },
    {
      "type": "Feature",
      "properties": {
        "@id": "node/2077157832",
        "addr:city": "Seattle",
        "addr:country": "US",
        "addr:housenumber": "617",
        "addr:postcode": "98102",
        "addr:state": "WA",
        "addr:street": "Broadway East",
        "amenity": "restaurant",
        "cuisine": "italian",
        "name": "Altura",
        "opening_hours": "Tu-Th 17:30-22:00; Fr,Sa 17:00-22:00",
        "website": "https://alturarestaurant.com"
      },
      "geometry": {
        "type": "Point",
        "coordinates": [
          -122.3211555,
          47.6248147
        ]
      },
      "id": "node/2077157832"
    },
    {
      "type": "Feature",
      "properties": {
        "@id": "node/2077157833",
        "addr:city": "Seattle",
        "addr:country": "US",
        "addr:housenumber": "613",
        "addr:postcode": "98102",
        "addr:state": "WA",
        "addr:street": "Broadway East",
        "amenity": "restaurant",
        "cuisine": "thai",
        "name": "Rom Mai Thai",
        "opening_hours": "Mo-Fr 11:00-14:30,16:00-21:30; Sa 11:00-21:30; Su 12:00-21:30",
        "website": "http://rommaithai.com"
      },
      "geometry": {
        "type": "Point",
        "coordinates": [
          -122.32115,
          47.6247346
        ]
      },
      "id": "node/2077157833"
    },
    {
      "type": "Feature",
      "properties": {
        "@id": "node/2086703544",
        "addr:city": "Seattle",
        "addr:housenumber": "2010",
        "addr:postcode": "98107",
        "addr:state": "WA",
        "addr:street": "Northwest 56th Street",
        "amenity": "restaurant",
        "bar": "no",
        "check_date": "2023-04-07",
        "cuisine": "thai",
        "diet:vegan": "yes",
        "name": "Pink Bee",
        "official_name": "Pink Bee Curry & Sandwiches",
        "opening_hours": "Mo-Su 11:00-15:00, 16:00-21:00",
        "payment:mastercard": "yes",
        "payment:visa": "yes",
        "phone": "+1-206-466-1650",
        "source": "King County GIS",
        "toilets:wheelchair": "yes",
        "website": "https://pinkbeethaifood.com/",
        "wheelchair": "yes"
      },
      "geometry": {
        "type": "Point",
        "coordinates": [
          -122.3827474,
          47.6695677
        ]
      },
      "id": "node/2086703544"
    },
    {
      "type": "Feature",
      "properties": {
        "@id": "node/2131716758",
        "addr:city": "Seattle",
        "addr:housenumber": "408",
        "addr:postcode": "98102",
        "addr:street": "Broadway East",
        "amenity": "restaurant",
        "check_date": "2025-04-05",
        "cuisine": "thai",
        "name": "Pinto Bistro Thai & Sushi Bar",
        "phone": "+1-206-724-0559",
        "website": "http://www.pintothaibistro.com/"
      },
      "geometry": {
        "type": "Point",
        "coordinates": [
          -122.3207061,
          47.6222936
        ]
      },
      "id": "node/2131716758"
    },
    {
      "type": "Feature",
      "properties": {
        "@id": "node/2131716853",
        "addr:city": "Seattle",
        "addr:country": "US",
        "addr:housenumber": "420",
        "addr:postcode": "98102",
        "addr:street": "Broadway East",
        "amenity": "restaurant",
        "check_date": "2025-07-19",
        "cuisine": "chinese;thai",
        "indoor_seating": "yes",
        "lgbtq": "welcome",
        "name": "Broadway Wok",
        "opening_hours": "Mo-Su 11:00-20:00",
        "outdoor_seating": "no",
        "phone": "+1-206-420-2999",
        "website": "https://www.broadwaywok.com"
      },
      "geometry": {
        "type": "Point",
        "coordinates": [
          -122.3206951,
          47.6226482
        ]
      },
      "id": "node/2131716853"
    },
    {
      "type": "Feature",
      "properties": {
        "@id": "node/2131716887",
        "addr:city": "Seattle",
        "addr:housenumber": "426",
        "addr:postcode": "98102",
        "addr:street": "Broadway East",
        "amenity": "restaurant",
        "check_date": "2025-04-05",
        "cuisine": "pizza;italian",
        "name": "Capitale",
        "phone": "+1-206-472-1105",
        "website": "https://capitalepizzeria.com/"
      },
      "geometry": {
        "type": "Point",
        "coordinates": [
          -122.3207093,
          47.622812
        ]
      },
      "id": "node/2131716887"
    },
    {
      "type": "Feature",
      "properties": {
        "@id": "node/2131716963",
        "addr:city": "Seattle",
        "addr:housenumber": "622",
        "addr:postcode": "98102",
        "addr:street": "Broadway East",
        "amenity": "restaurant",
        "check_date": "2024-08-13",
        "cuisine": "italian",
        "indoor_seating": "yes",
        "lgbtq": "welcome",
        "lgbtq:signed": "yes",
        "name": "Carrello",
        "outdoor_seating": "yes",
        "website": "https://carrellorestaurant.com"
      },
      "geometry": {
        "type": "Point",
        "coordinates": [
          -122.3205321,
          47.6249602
        ]
      },
      "id": "node/2131716963"
    },
    {
      "type": "Feature",
      "properties": {
        "@id": "node/2138230526",
        "addr:city": "Seattle",
        "addr:housenumber": "5909",
        "addr:postcode": "98107",
        "addr:state": "WA",
        "addr:street": "15th Avenue Northwest",
        "amenity": "restaurant",
        "cuisine": "italian",
        "name": "NoLIta",
        "source": "King County GIS"
      },
      "geometry": {
        "type": "Point",
        "coordinates": [
          -122.376429,
          47.6720507
        ]
      },
      "id": "node/2138230526"
    },
    {
      "type": "Feature",
      "properties": {
        "@id": "node/2138389723",
        "addr:city": "Seattle",
        "addr:housenumber": "4739",
        "addr:postcode": "98107",
        "addr:street": "Ballard Avenue Northwest",
        "amenity": "restaurant",
        "contact:phone": "+1-206-789-1200",
        "contact:website": "http://www.ethanstowellrestaurants.com/locations/staple-fancy/",
        "cuisine": "italian",
        "name": "Staple & Fancy",
        "opening_hours": "17:00-23:00",
        "operator": "Ethan Stowell Restaurants",
        "source": "King County GIS"
      },
      "geometry": {
        "type": "Point",
        "coordinates": [
          -122.3800456,
          47.6635494
        ]
      },
      "id": "node/2138389723"
    },
    {
      "type": "Feature",
      "properties": {
        "@id": "node/2138396683",
        "addr:city": "Seattle",
        "addr:housenumber": "2021",
        "addr:postcode": "98107",
        "addr:state": "WA",
        "addr:street": "Northwest Market Street",
        "addr:unit": "B",
        "amenity": "restaurant",
        "checked_exists:date": "2016-08-27",
        "cuisine": "thai",
        "diet:vegetarian": "yes",
        "name": "Thai Thani Kitchen",
        "opening_hours": "Mo-Th 11:00-22:00; Fr 11:00-21:00; Sa 12:00-22:00; Su 12:00-21:30",
        "phone": "+1-206-784-2324",
        "source": "King County GIS",
        "takeaway:covid19": "yes",
        "website": "http://thaithanikitchen.com",
        "website:menu": "https://thaithaniballardwa.smiledining.com/"
      },
      "geometry": {
        "type": "Point",
        "coordinates": [
          -122.38391,
          47.6684912
        ]
      },
      "id": "node/2138396683"
    },
    {
      "type": "Feature",
      "properties": {
        "@id": "node/2138396702",
        "addr:city": "Seattle",
        "addr:housenumber": "5210",
        "addr:postcode": "98107",
        "addr:street": "Ballard Avenue Northwest",
        "amenity": "restaurant",
        "check_date": "2024-12-12",
        "contact:facebook": "spoonfullballard",
        "contact:instagram": "spoonfullballard",
        "cuisine": "thai",
        "name": "Spoonfull Thai Kitchen",
        "opening_hours": "Su-Th 11:30-23:00; Fr-Sa 11:30-01:00",
        "phone": "+1-206-644-2993",
        "short_name": "Spoonfull",
        "source": "King County GIS",
        "website": "https://spoonfullballard.com"
      },
      "geometry": {
        "type": "Point",
        "coordinates": [
          -122.382522,
          47.6660224
        ]
      },
      "id": "node/2138396702"
    },
    {
      "type": "Feature",
      "properties": {
        "@id": "node/2138396776",
        "addr:city": "Seattle",
        "addr:housenumber": "5341",
        "addr:postcode": "98107",
        "addr:street": "Ballard Avenue Northwest",
        "amenity": "restaurant",
        "check_date": "2025-08-30",
        "check_date:opening_hours": "2025-08-30",
        "cuisine": "italian",
        "diet:vegetarian": "yes",
        "name": "San Fermo",
        "opening_hours": "Mo-Su 17:00-21:00+",
        "source": "King County GIS"
      },
      "geometry": {
        "type": "Point",
        "coordinates": [
          -122.3844573,
          47.6672496
        ]
      },
      "id": "node/2138396776"
    },
    {
      "type": "Feature",
      "properties": {
        "@id": "node/2140513616",
        "addr:city": "Seattle",
        "addr:housenumber": "6415",
        "addr:postcode": "98107",
        "addr:street": "32nd Avenue Northwest",
        "alt_name": "Ristorante Picolinos",
        "amenity": "restaurant",
        "cuisine": "italian",
        "name": "Picolinos",
        "source": "King County GIS",
        "website": "http://www.ristorantepicolinos.com"
      },
      "geometry": {
        "type": "Point",
        "coordinates": [
          -122.398565,
          47.6755287
        ]
      },
      "id": "node/2140513616"
    },
    {
      "type": "Feature",
      "properties": {
        "@id": "node/2143336844",
        "addr:city": "Seattle",
        "addr:housenumber": "3624",
        "addr:postcode": "98107",
        "addr:street": "Leary Way Northwest",
        "amenity": "restaurant",
        "check_date": "2025-03-20",
        "cuisine": "italian",
        "name": "Alberona's Da Vinci Pizza",
        "opening_hours": "Mo-Su 11:00-03:00",
        "source": "King County GIS",
        "website": "http://i5pizza.com"
      },
      "geometry": {
        "type": "Point",
        "coordinates": [
          -122.3596631,
          47.6540138
        ]
      },
      "id": "node/2143336844"
    },
    {
      "type": "Feature",
      "properties": {
        "@id": "node/2143436990",
        "addr:city": "Seattle",
        "addr:housenumber": "7729",
        "addr:postcode": "98117",
        "addr:street": "24th Avenue Northwest",
        "amenity": "restaurant",
        "check_date:opening_hours": "2022-11-02",
        "contact:phone": "+1-206-789-4444",
        "cuisine": "pizza;italian",
        "name": "Soprano's Pizza & Pasta",
        "opening_hours:signed": "no",
        "source": "King County GIS"
      },
      "geometry": {
        "type": "Point",
        "coordinates": [
          -122.3878316,
          47.6858525
        ]
      },
      "id": "node/2143436990"
    },
    {
      "type": "Feature",
      "properties": {
        "@id": "node/2152901650",
        "addr:city": "Seattle",
        "addr:housenumber": "12506",
        "addr:postcode": "98125",
        "addr:street": "Lake City Way Northeast",
        "amenity": "restaurant",
        "check_date": "2025-08-20",
        "cuisine": "thai",
        "name": "2C Thai",
        "opening_hours": "Mo,We-Fr 11:00-15:00,16:00-20:30; Tu 16:30-20:30; Sa 12:00-21:00; Su 12:00-20:30",
        "phone": "+1-206-739-5909",
        "source": "King County GIS;data.seattle.gov",
        "website": "http://www.2cthai.com"
      },
      "geometry": {
        "type": "Point",
        "coordinates": [
          -122.294775,
          47.7195575
        ]
      },
      "id": "node/2152901650"
    },
    {
      "type": "Feature",
      "properties": {
        "@id": "node/2158750345",
        "addr:city": "Seattle",
        "addr:housenumber": "1400",
        "addr:postcode": "98122",
        "addr:street": "10th Avenue",
        "amenity": "restaurant",
        "check_date": "2024-03-23",
        "contact:facebook": "104929532305469",
        "contact:instagram": "fernthaioncaphill",
        "cuisine": "thai",
        "email": "ferncaphill@gmail.com",
        "internet_access": "wlan",
        "name": "Fern",
        "opening_hours": "Fr-Sa 12:00-00:00; Su-Th 12:00-23:00",
        "phone": "+1-206-858-6655",
        "website": "https://fernthaioncaphill.com/",
        "website:menu": "https://fernthaioncaphill.com/seattle-fern-thai-eatery-and-bar-food-menu"
      },
      "geometry": {
        "type": "Point",
        "coordinates": [
          -122.3192334,
          47.6131229
        ]
      },
      "id": "node/2158750345"
    },
    {
      "type": "Feature",
      "properties": {
        "@id": "node/2158768477",
        "addr:city": "Seattle",
        "addr:housenumber": "1215",
        "addr:postcode": "98101",
        "addr:street": "Pine Street",
        "amenity": "restaurant",
        "check_date": "2025-08-05",
        "cuisine": "italian",
        "name": "Cheese Room",
        "source": "King County GIS",
        "website": "https://www.cheeseroomseattle.com"
      },
      "geometry": {
        "type": "Point",
        "coordinates": [
          -122.3280674,
          47.6150274
        ]
      },
      "id": "node/2158768477"
    },
    {
      "type": "Feature",
      "properties": {
        "@id": "node/2159323028",
        "addr:city": "Seattle",
        "addr:housenumber": "501",
        "addr:postcode": "98122",
        "addr:street": "East Pike Street",
        "amenity": "restaurant",
        "cuisine": "italian",
        "indoor_seating": "yes",
        "name": "Tavolata",
        "opening_hours": "Mo-Su 17:00-23:00",
        "outdoor_seating": "yes",
        "phone": "+1-206-420-8355",
        "source": "King County GIS",
        "website": "http://www.ethanstowellrestaurants.com/locations/tavolata-capitol-hill/",
        "wheelchair": "yes"
      },
      "geometry": {
        "type": "Point",
        "coordinates": [
          -122.3253177,
          47.6139607
        ]
      },
      "id": "node/2159323028"
    },
    {
      "type": "Feature",
      "properties": {
        "@id": "node/2159323138",
        "addr:city": "Seattle",
        "addr:country": "US",
        "addr:housenumber": "727",
        "addr:postcode": "98122",
        "addr:state": "WA",
        "addr:street": "East Pike Street",
        "amenity": "restaurant",
        "check_date": "2024-08-03",
        "cuisine": "thai",
        "diet:vegetarian": "yes",
        "name": "Ayutthaya Thai Cuisine",
        "opening_hours": "Mo-Fr 11:30-15:00, 16:00-23:00; Sa 12:00-23:00; Su 16:00-23:00",
        "website": "http://www.ayutthayathai.com/"
      },
      "geometry": {
        "type": "Point",
        "coordinates": [
          -122.3222886,
          47.613953
        ]
      },
      "id": "node/2159323138"
    },
    {
      "type": "Feature",
      "properties": {
        "@id": "node/2167253568",
        "addr:city": "Seattle",
        "addr:housenumber": "3517",
        "addr:postcode": "98103",
        "addr:street": "Fremont Avenue North",
        "amenity": "restaurant",
        "check_date": "2023-06-18",
        "contact:facebook": "kinlenbar",
        "contact:instagram": "kinlenbar",
        "cuisine": "thai",
        "name": "Kin Len Thai Night Bites",
        "opening_hours": "Mo-Su 11:30-22:00",
        "phone": "+1-206-582-1825",
        "website": "https://kin-len.com/"
      },
      "geometry": {
        "type": "Point",
        "coordinates": [
          -122.3501319,
          47.651241
        ]
      },
      "id": "node/2167253568"
    },
    {
      "type": "Feature",
      "properties": {
        "@id": "node/2190510635",
        "addr:city": "Seattle",
        "addr:housenumber": "15",
        "addr:postcode": "98109",
        "addr:street": "Nickerson Street",
        "addr:unit": "A",
        "amenity": "restaurant",
        "bar": "yes",
        "check_date": "2024-02-10",
        "cuisine": "thai",
        "delivery": "18:00-21:00",
        "internet_access": "wlan",
        "name": "Thai Fusion",
        "outdoor_seating": "yes",
        "smoking": "no",
        "source": "King County GIS",
        "website": "https://www.thaifusionseattle.com/"
      },
      "geometry": {
        "type": "Point",
        "coordinates": [
          -122.3567925,
          47.6491931
        ]
      },
      "id": "node/2190510635"
    },
    {
      "type": "Feature",
      "properties": {
        "@id": "node/2285097131",
        "addr:city": "Seattle",
        "addr:housenumber": "8317",
        "addr:postcode": "98103",
        "addr:street": "Greenwood Avenue North",
        "amenity": "restaurant",
        "check_date": "2025-02-11",
        "cuisine": "thai",
        "indoor_seating": "yes",
        "name": "Ray's Rice And Noodle Bar",
        "outdoor_seating": "yes",
        "phone": "+1-206-456-2996",
        "source": "King County GIS;data.seattle.gov"
      },
      "geometry": {
        "type": "Point",
        "coordinates": [
          -122.3555082,
          47.6896828
        ]
      },
      "id": "node/2285097131"
    },
    {
      "type": "Feature",
      "properties": {
        "@id": "node/2286239551",
        "addr:city": "Seattle",
        "addr:housenumber": "308",
        "addr:postcode": "98133",
        "addr:state": "WA",
        "addr:street": "North 125th Street",
        "amenity": "restaurant",
        "check_date": "2024-08-06",
        "cuisine": "thai",
        "name": "Chada Thai",
        "opening_hours": "Mo-Sa 11:00-21:00; Su 12:00-21:00",
        "source": "King County GIS;data.seattle.gov",
        "website": "https://www.chadathaiseattle.com/"
      },
      "geometry": {
        "type": "Point",
        "coordinates": [
          -122.3548275,
          47.7198737
        ]
      },
      "id": "node/2286239551"
    },
    {
      "type": "Feature",
      "properties": {
        "@id": "node/2297717837",
        "addr:city": "Seattle",
        "addr:housenumber": "2510",
        "addr:postcode": "98121",
        "addr:state": "WA",
        "addr:street": "4th Avenue",
        "amenity": "restaurant",
        "check_date": "2023-04-09",
        "cuisine": "thai",
        "name": "Ti22",
        "opening_hours": "Su-Th 11:00-21:00; Fr-Sa 11:00-22:00",
        "phone": "+1-206-453-4090",
        "source": "King County GIS;data.seattle.gov",
        "website": "https://www.ti22belltown.com/"
      },
      "geometry": {
        "type": "Point",
        "coordinates": [
          -122.3464629,
          47.6170766
        ]
      },
      "id": "node/2297717837"
    },
    {
      "type": "Feature",
      "properties": {
        "@id": "node/2312065979",
        "addr:housenumber": "2200",
        "addr:state": "WA",
        "addr:street": "Westlake Avenue",
        "amenity": "restaurant",
        "checked_exists:date": "2016-06-27",
        "cuisine": "pizza;italian",
        "internet_access": "yes",
        "name": "Tutta Bella Neapolitan Pizzeria",
        "opening_hours": "11:00-22:00",
        "oven": "wood_fired",
        "phone": "+1-206-624-4422",
        "reservation": "yes",
        "website": "https://www.tuttabella.com/location/tutta-bella-south-lake-union/"
      },
      "geometry": {
        "type": "Point",
        "coordinates": [
          -122.3381109,
          47.6184003
        ]
      },
      "id": "node/2312065979"
    },
    {
      "type": "Feature",
      "properties": {
        "@id": "node/2323840275",
        "addr:city": "Seattle",
        "addr:housenumber": "4736",
        "addr:postcode": "98105",
        "addr:street": "University Way Northeast",
        "amenity": "restaurant",
        "check_date": "2023-06-25",
        "cuisine": "thai",
        "delivery": "yes",
        "name": "Maggi Point",
        "outdoor_seating": "no",
        "smoking": "no",
        "source": "King County GIS;data.seattle.gov",
        "takeaway": "yes",
        "website": "https://maggipoints.com/"
      },
      "geometry": {
        "type": "Point",
        "coordinates": [
          -122.3129333,
          47.6641925
        ]
      },
      "id": "node/2323840275"
    },
    {
      "type": "Feature",
      "properties": {
        "@id": "node/2327361292",
        "addr:city": "Seattle",
        "addr:housenumber": "2904",
        "addr:postcode": "98121",
        "addr:state": "WA",
        "addr:street": "1st Avenue",
        "air_conditioning": "yes",
        "amenity": "restaurant",
        "check_date": "2023-04-09",
        "cuisine": "thai",
        "diet:vegan": "yes",
        "diet:vegetarian": "yes",
        "name": "Thai On 1",
        "opening_hours": "Sa,Su 12:00-21:00; Mo-Fr 11:00-21:00",
        "outdoor_seating": "yes",
        "payment:credit_cards": "yes",
        "payment:debit_cards": "yes",
        "source": "King County GIS;data.seattle.gov",
        "takeaway": "yes"
      },
      "geometry": {
        "type": "Point",
        "coordinates": [
          -122.3526703,
          47.6171976
        ]
      },
      "id": "node/2327361292"
    },
    {
      "type": "Feature",
      "properties": {
        "@id": "node/2327596977",
        "addr:city": "Seattle",
        "addr:housenumber": "425",
        "addr:postcode": "98121",
        "addr:state": "WA",
        "addr:street": "Cedar Street",
        "amenity": "restaurant",
        "check_date": "2023-06-14",
        "cuisine": "thai",
        "name": "Golden Singha",
        "source": "King County GIS;data.seattle.gov",
        "website": "https://goldensingha.com/"
      },
      "geometry": {
        "type": "Point",
        "coordinates": [
          -122.3471963,
          47.6182373
        ]
      },
      "id": "node/2327596977"
    },
    {
      "type": "Feature",
      "properties": {
        "@id": "node/2327663068",
        "addr:city": "Seattle",
        "addr:country": "US",
        "addr:housenumber": "2319",
        "addr:postcode": "98121",
        "addr:state": "WA",
        "addr:street": "2nd Avenue",
        "amenity": "restaurant",
        "bar": "yes",
        "check_date": "2025-04-26",
        "contact:phone": "+1-206-735-7352",
        "contact:website": "https://www.bangrakmarket.com/",
        "cuisine": "thai",
        "lgbtq": "welcome",
        "name": "Bangrak Market",
        "opening_hours": "Mo-Th 11:00-15:00,16:00-24:00; Fr 11:00-15:00,16:00-26:00; Sa 12:00-26:00; Su 12:00-23:00",
        "outdoor_seating": "yes",
        "wheelchair": "yes"
      },
      "geometry": {
        "type": "Point",
        "coordinates": [
          -122.3465048,
          47.6143274
        ]
      },
      "id": "node/2327663068"
    },
    {
      "type": "Feature",
      "properties": {
        "@id": "node/2327663073",
        "addr:city": "Seattle",
        "addr:country": "US",
        "addr:housenumber": "2323",
        "addr:postcode": "98121",
        "addr:state": "WA",
        "addr:street": "2nd Avenue",
        "alt_name": "Tavolata",
        "amenity": "restaurant",
        "check_date": "2025-04-26",
        "contact:phone": "+1-206-838-8008",
        "contact:website": "https://tavolata.com/location/belltown-second-avenue-seattle",
        "cuisine": "italian",
        "name": "Tavol√†ta",
        "opening_hours": "Su-Th 16:00-22:00; Fr-Sa 16:00-23:00"
      },
      "geometry": {
        "type": "Point",
        "coordinates": [
          -122.3466684,
          47.6144388
        ]
      },
      "id": "node/2327663073"
    },
    {
      "type": "Feature",
      "properties": {
        "@id": "node/2327716487",
        "addr:city": "Seattle",
        "addr:housenumber": "120",
        "addr:postcode": "98121",
        "addr:state": "WA",
        "addr:street": "Blanchard Street",
        "amenity": "restaurant",
        "cuisine": "italian",
        "name": "La Fontana",
        "outdoor_seating": "yes",
        "source": "King County GIS;data.seattle.gov"
      },
      "geometry": {
        "type": "Point",
        "coordinates": [
          -122.3447495,
          47.6131456
        ]
      },
      "id": "node/2327716487"
    },
    {
      "type": "Feature",
      "properties": {
        "@id": "node/2327723036",
        "addr:city": "Seattle",
        "addr:housenumber": "2100",
        "addr:postcode": "98121",
        "addr:state": "WA",
        "addr:street": "6th Avenue",
        "amenity": "restaurant",
        "check_date": "2023-06-05",
        "cuisine": "italian;pizza",
        "name": "Willmott‚Äôs Ghost",
        "opening_hours": "Mo-Th 08:00-21:00; Fr 08:00-22:00; Sa 16:00-22:00",
        "operator": "Sea Creatures",
        "phone": "+1-206-900-9650",
        "source": "King County GIS;data.seattle.gov",
        "website": "https://www.willmottsghost.com/",
        "wheelchair": "yes"
      },
      "geometry": {
        "type": "Point",
        "coordinates": [
          -122.3396249,
          47.6153914
        ]
      },
      "id": "node/2327723036"
    },
    {
      "type": "Feature",
      "properties": {
        "@id": "node/2327732020",
        "addr:city": "Seattle",
        "addr:housenumber": "2010",
        "addr:postcode": "98121",
        "addr:state": "WA",
        "addr:street": "4th Avenue",
        "amenity": "restaurant",
        "check_date": "2023-04-16",
        "cuisine": "italian",
        "name": "Assaggio Ristorante",
        "opening_hours": "Tu-Th 17:00-21:00; Fr-Sa 17:00-22:00",
        "phone": "+1-206-441-1399",
        "source": "King County GIS;data.seattle.gov",
        "website": "https://www.assaggioseattle.com/"
      },
      "geometry": {
        "type": "Point",
        "coordinates": [
          -122.3403218,
          47.6134273
        ]
      },
      "id": "node/2327732020"
    },
    {
      "type": "Feature",
      "properties": {
        "@id": "node/2327732122",
        "addr:city": "Seattle",
        "addr:housenumber": "316",
        "addr:postcode": "98101",
        "addr:state": "WA",
        "addr:street": "Virginia Street",
        "amenity": "restaurant",
        "cuisine": "italian",
        "name": "Neb Wine Bar",
        "opening_hours": "Tu-Th 17:00-21:00; Fr-Sa 17:00-22:00",
        "operator": "Tom Douglas",
        "phone": "+1-206-245-1209",
        "source": "King County GIS;data.seattle.gov",
        "website": "https://www.nebwinebar.com/"
      },
      "geometry": {
        "type": "Point",
        "coordinates": [
          -122.3404945,
          47.612903
        ]
      },
      "id": "node/2327732122"
    },
    {
      "type": "Feature",
      "properties": {
        "@id": "node/2327741711",
        "addr:city": "Seattle",
        "addr:housenumber": "1940",
        "addr:postcode": "98101",
        "addr:state": "WA",
        "addr:street": "Westlake Avenue",
        "amenity": "restaurant",
        "contact:facebook": "https://www.facebook.com/baroloseattle",
        "contact:instagram": "http://instagram.com/baroloristorante",
        "contact:phone": "+1-206-770-9000",
        "cuisine": "italian",
        "level": "0",
        "name": "Barolo Ristorante",
        "reservation": "yes",
        "source": "King County GIS;data.seattle.gov",
        "website": "https://baroloseattle.com/",
        "wheelchair": "yes"
      },
      "geometry": {
        "type": "Point",
        "coordinates": [
          -122.3374592,
          47.6145988
        ]
      },
      "id": "node/2327741711"
    },
    {
      "type": "Feature",
      "properties": {
        "@id": "node/2328649878",
        "addr:city": "Seattle",
        "addr:housenumber": "7617",
        "addr:postcode": "98103",
        "addr:street": "Aurora Avenue North",
        "amenity": "restaurant",
        "check_date": "2025-12-07",
        "check_date:opening_hours": "2025-12-07",
        "cuisine": "thai",
        "name": "Always",
        "opening_hours": "Tu-Th 11:00-20:00; Fr,Sa 11:00-21:00; Mo off"
      },
      "geometry": {
        "type": "Point",
        "coordinates": [
          -122.3447119,
          47.684568
        ]
      },
      "id": "node/2328649878"
    },
    {
      "type": "Feature",
      "properties": {
        "@id": "node/2329620086",
        "addr:city": "Seattle",
        "addr:housenumber": "1841",
        "addr:postcode": "98112",
        "addr:street": "42nd Avenue East",
        "amenity": "restaurant",
        "cuisine": "thai",
        "name": "Bamboo Thai Cuisine",
        "opening_hours": "Mo-Su 12:00-13:00,16:00-20:30",
        "source": "King County GIS;data.seattle.gov"
      },
      "geometry": {
        "type": "Point",
        "coordinates": [
          -122.2786721,
          47.6358478
        ]
      },
      "id": "node/2329620086"
    },
    {
      "type": "Feature",
      "properties": {
        "@id": "node/2329773388",
        "addr:city": "Seattle",
        "addr:housenumber": "6503",
        "addr:postcode": "98136",
        "addr:street": "California Avenue Southwest",
        "amenity": "restaurant",
        "cuisine": "italian",
        "level": "0",
        "name": "The Neighborhood",
        "source": "King County GIS;data.seattle.gov",
        "website": "https://theneighborhoodws.com"
      },
      "geometry": {
        "type": "Point",
        "coordinates": [
          -122.38742,
          47.5446407
        ]
      },
      "id": "node/2329773388"
    },
    {
      "type": "Feature",
      "properties": {
        "@id": "node/2330319732",
        "addr:city": "Seattle",
        "addr:housenumber": "1404",
        "addr:postcode": "98122",
        "addr:street": "34th Avenue",
        "amenity": "restaurant",
        "cuisine": "thai",
        "name": "Naam Thai",
        "source": "King County GIS;data.seattle.gov",
        "website": "http://naamseattle.com"
      },
      "geometry": {
        "type": "Point",
        "coordinates": [
          -122.289161,
          47.6130953
        ]
      },
      "id": "node/2330319732"
    },
    {
      "type": "Feature",
      "properties": {
        "@id": "node/2338569327",
        "addr:city": "Seattle",
        "addr:housenumber": "4857",
        "addr:postcode": "98118",
        "addr:street": "Rainier Avenue South",
        "amenity": "restaurant",
        "cuisine": "italian",
        "diet:vegetarian": "yes",
        "name": "La Medusa",
        "opening_hours": "Fr,Sa 15:00-19:00",
        "phone": "+1-206-723-2192",
        "source": "King County GIS;data.seattle.gov",
        "website": "http://lamedusarestaurant.com"
      },
      "geometry": {
        "type": "Point",
        "coordinates": [
          -122.2855677,
          47.5584666
        ]
      },
      "id": "node/2338569327"
    },
    {
      "type": "Feature",
      "properties": {
        "@id": "node/2342231004",
        "addr:city": "Seattle",
        "addr:housenumber": "4437",
        "addr:postcode": "98116",
        "addr:state": "WA",
        "addr:street": "California Avenue Southwest",
        "amenity": "restaurant",
        "check_date": "2025-04-12",
        "cuisine": "italian",
        "name": "Du√© Cucina",
        "source": "King County GIS;data.seattle.gov",
        "website": "https://duecucina.com/locations/west-seattle/"
      },
      "geometry": {
        "type": "Point",
        "coordinates": [
          -122.3870027,
          47.5636165
        ]
      },
      "id": "node/2342231004"
    },
    {
      "type": "Feature",
      "properties": {
        "@id": "node/2351695585",
        "addr:city": "Seattle",
        "addr:housenumber": "211",
        "addr:postcode": "98104",
        "addr:state": "WA",
        "addr:street": "1st Avenue South",
        "amenity": "restaurant",
        "cuisine": "italian",
        "name": "Luigi‚Äôs",
        "source": "Pioneer Square Association;King County GIS;data.seattle.gov",
        "website": "https://wsdot.wa.gov/projects/viaduct/Milepost31"
      },
      "geometry": {
        "type": "Point",
        "coordinates": [
          -122.3343967,
          47.6004013
        ]
      },
      "id": "node/2351695585"
    },
    {
      "type": "Feature",
      "properties": {
        "@id": "node/2351712237",
        "addr:city": "Seattle",
        "addr:country": "US",
        "addr:housenumber": "300",
        "addr:postcode": "98104",
        "addr:state": "WA",
        "addr:street": "Occidental Avenue South",
        "amenity": "restaurant",
        "branch": "Pioneer Square",
        "contact:email": "gm@darkalinos.com",
        "contact:facebook": "https://www.facebook.com/people/Darkalinos/100094085842716/",
        "contact:phone": "+1-206-905-4377",
        "contact:website": "https://www.darkalinos.com/",
        "contact:yelp": "https://www.yelp.com/biz/darkalinos-seattle",
        "cuisine": "italian",
        "indoor_seating": "yes",
        "name": "Darkalino's",
        "opening_hours": "Tu-Sa 11:00-20:00; Su,Mo off"
      },
      "geometry": {
        "type": "Point",
        "coordinates": [
          -122.332691,
          47.5999224
        ]
      },
      "id": "node/2351712237"
    },
    {
      "type": "Feature",
      "properties": {
        "@id": "node/2351726173",
        "addr:city": "Seattle",
        "addr:housenumber": "166",
        "addr:postcode": "98104",
        "addr:state": "WA",
        "addr:street": "South King Street",
        "amenity": "restaurant",
        "check_date": "2026-02-02",
        "cuisine": "seafood;thai",
        "diet:vegetarian": "yes",
        "name": "Super Kim",
        "outdoor_seating": "no",
        "website": "https://www.superkim.net/"
      },
      "geometry": {
        "type": "Point",
        "coordinates": [
          -122.3319039,
          47.598428
        ]
      },
      "id": "node/2351726173"
    },
    {
      "type": "Feature",
      "properties": {
        "@id": "node/2358231308",
        "addr:city": "Seattle",
        "addr:housenumber": "517",
        "addr:postcode": "98109",
        "addr:state": "WA",
        "addr:street": "Queen Anne Avenue North",
        "amenity": "restaurant",
        "check_date": "2025-12-14",
        "cuisine": "thai",
        "diet:vegetarian": "yes",
        "name": "Cashew",
        "source": "King County GIS;data.seattle.gov"
      },
      "geometry": {
        "type": "Point",
        "coordinates": [
          -122.3568771,
          47.6238443
        ]
      },
      "id": "node/2358231308"
    },
    {
      "type": "Feature",
      "properties": {
        "@id": "node/2374421533",
        "addr:city": "Seattle",
        "addr:housenumber": "2724",
        "addr:postcode": "98122",
        "addr:state": "WA",
        "addr:street": "East Cherry Street",
        "amenity": "restaurant",
        "check_date": "2024-05-07",
        "cuisine": "thai",
        "name": "Cherry Street Thai",
        "opening_hours": "Mo-Th 11:00-21:30; Fr 11:00-22:00; Sa 12:00-22:00; Su 11:30-21:00",
        "phone": "+1-206-325-6660",
        "source": "King County GIS;data.seattle.gov",
        "website": "https://lotusthaicuisine-thairestaurant.business.site"
      },
      "geometry": {
        "type": "Point",
        "coordinates": [
          -122.296551,
          47.6081179
        ]
      },
      "id": "node/2374421533"
    },
    {
      "type": "Feature",
      "properties": {
        "@id": "node/2380088343",
        "addr:city": "Seattle",
        "addr:housenumber": "264",
        "addr:postcode": "98105",
        "addr:street": "Northeast 45th Street",
        "amenity": "restaurant",
        "cuisine": "thai",
        "name": "Djan's",
        "source": "King County GIS;data.seattle.gov"
      },
      "geometry": {
        "type": "Point",
        "coordinates": [
          -122.3254124,
          47.6614956
        ]
      },
      "id": "node/2380088343"
    },
    {
      "type": "Feature",
      "properties": {
        "@id": "node/2383892151",
        "addr:city": "Seattle",
        "addr:housenumber": "516",
        "addr:postcode": "98112",
        "addr:street": "15th Avenue East",
        "amenity": "restaurant",
        "check_date": "2025-05-08",
        "check_date:opening_hours": "2025-05-08",
        "cuisine": "pizza;italian",
        "diet:vegetarian": "yes",
        "indoor_seating": "yes",
        "name": "Olympia Pizza III",
        "opening_hours:signed": "no",
        "outdoor_seating": "yes",
        "phone": "+1-206-329-4500",
        "source": "King County GIS;data.seattle.gov",
        "toilets": "yes"
      },
      "geometry": {
        "type": "Point",
        "coordinates": [
          -122.3124224,
          47.6238096
        ]
      },
      "id": "node/2383892151"
    },
    {
      "type": "Feature",
      "properties": {
        "@id": "node/2397396617",
        "addr:city": "Seattle",
        "addr:housenumber": "4750",
        "addr:postcode": "98116",
        "addr:street": "California Avenue Southwest",
        "amenity": "restaurant",
        "check_date": "2025-02-09",
        "cuisine": "thai",
        "name": "Bang Bar",
        "phone": "+1-206-935-8888",
        "source": "King County GIS;data.seattle.gov",
        "website": "https://bangbarthai.com/"
      },
      "geometry": {
        "type": "Point",
        "coordinates": [
          -122.3866131,
          47.5595706
        ]
      },
      "id": "node/2397396617"
    },
    {
      "type": "Feature",
      "properties": {
        "@id": "node/2397493543",
        "addr:city": "Seattle",
        "addr:housenumber": "1425",
        "addr:postcode": "98101",
        "addr:state": "WA",
        "addr:street": "1st Avenue",
        "amenity": "restaurant",
        "check_date": "2024-02-24",
        "cuisine": "italian",
        "indoor_seating": "yes",
        "name": "Bottega Italiana",
        "outdoor_seating": "yes",
        "phone": "+1-206-343-0200",
        "source": "King County GIS;data.seattle.gov"
      },
      "geometry": {
        "type": "Point",
        "coordinates": [
          -122.3398896,
          47.6084507
        ]
      },
      "id": "node/2397493543"
    },
    {
      "type": "Feature",
      "properties": {
        "@id": "node/2400859108",
        "addr:city": "Seattle",
        "addr:housenumber": "12",
        "addr:postcode": "98109",
        "addr:state": "WA",
        "addr:street": "Mercer Street",
        "amenity": "restaurant",
        "check_date": "2024-06-24",
        "cuisine": "thai",
        "name": "Racha Thai",
        "source": "King County GIS;data.seattle.gov;local knowledge",
        "website": "http://www.rachathai.com/queen-anne"
      },
      "geometry": {
        "type": "Point",
        "coordinates": [
          -122.3561364,
          47.624696
        ]
      },
      "id": "node/2400859108"
    },
    {
      "type": "Feature",
      "properties": {
        "@id": "node/2404238298",
        "addr:city": "Seattle",
        "addr:housenumber": "621",
        "addr:postcode": "98101",
        "addr:state": "WA",
        "addr:street": "Union Street",
        "amenity": "restaurant",
        "cuisine": "italian",
        "name": "Cortina",
        "opening_hours": "Mo-Fr 11:00-22:00; Sa 16:00-22:00; Su 16:00-21:00",
        "source": "King County GIS;data.seattle.gov",
        "website": "http://www.ethanstowellrestaurants.com/locations/cortina/"
      },
      "geometry": {
        "type": "Point",
        "coordinates": [
          -122.3327365,
          47.6103382
        ]
      },
      "id": "node/2404238298"
    },
    {
      "type": "Feature",
      "properties": {
        "@id": "node/2404249301",
        "addr:city": "Seattle",
        "addr:housenumber": "1303",
        "addr:postcode": "98101",
        "addr:state": "WA",
        "addr:street": "1st Avenue",
        "amenity": "restaurant",
        "cuisine": "thai",
        "level": "2",
        "name": "Noi Thai Cuisine",
        "phone": "+1-206-787-8444",
        "source": "King County GIS;data.seattle.gov",
        "website": "https://www.noithaicuisine.com/"
      },
      "geometry": {
        "type": "Point",
        "coordinates": [
          -122.338986,
          47.6066383
        ]
      },
      "id": "node/2404249301"
    },
    {
      "type": "Feature",
      "properties": {
        "@id": "node/2404316452",
        "addr:city": "Seattle",
        "addr:housenumber": "93",
        "addr:postcode": "98104",
        "addr:state": "WA",
        "addr:street": "Marion Street",
        "amenity": "restaurant",
        "cuisine": "thai",
        "name": "Ferry Noodle House",
        "source": "King County GIS;data.seattle.gov",
        "website": "http://ferrynoodlehousethai.com"
      },
      "geometry": {
        "type": "Point",
        "coordinates": [
          -122.3358755,
          47.6037242
        ]
      },
      "id": "node/2404316452"
    },
    {
      "type": "Feature",
      "properties": {
        "@id": "node/2422371770",
        "addr:city": "Seattle",
        "addr:housenumber": "2213",
        "addr:postcode": "98107",
        "addr:street": "Northwest Market Street",
        "amenity": "restaurant",
        "check_date": "2025-01-15",
        "contact:facebook": "828705810847808",
        "contact:instagram": "secret_savory_ballard",
        "cuisine": "thai",
        "name": "Secret Savory",
        "opening_hours": "Mo-Th 11:00-22:00; Fr 11:00-22:30; Sa 10:00-22:30; Su 10:00-22:00",
        "phone": "+1-206-829-8867",
        "source": "King County GIS;data.seattle.gov",
        "website": "https://www.thesecretsavory.com/",
        "website:menu": "https://thesecretsavory.com/seattle-ballard-secret-savory-food-menu"
      },
      "geometry": {
        "type": "Point",
        "coordinates": [
          -122.385403,
          47.6685077
        ]
      },
      "id": "node/2422371770"
    },
    {
      "type": "Feature",
      "properties": {
        "@id": "node/2422371779",
        "addr:city": "Seattle",
        "addr:housenumber": "2305",
        "addr:postcode": "98107",
        "addr:state": "WA",
        "addr:street": "Northwest Market Street",
        "amenity": "restaurant",
        "check_date": "2025-10-22",
        "cuisine": "thai",
        "diet:gluten_free": "yes",
        "diet:vegetarian": "yes",
        "email": "eat@pestlerock.com",
        "name": "Pestle Rock",
        "opening_hours": "Mo-Th 11:30-21:30; Su 12:00-21:00; Fr 11:30-22:00; Sa 12:00-22:00",
        "outdoor_seating": "yes",
        "phone": "+1-206-466-6671",
        "source": "King County GIS;data.seattle.gov",
        "toilets": "yes",
        "toilets:wheelchair": "yes",
        "website": "https://pestlerock.com"
      },
      "geometry": {
        "type": "Point",
        "coordinates": [
          -122.3865089,
          47.6685289
        ]
      },
      "id": "node/2422371779"
    },
    {
      "type": "Feature",
      "properties": {
        "@id": "node/2423558933",
        "addr:city": "Seattle",
        "addr:housenumber": "601",
        "addr:postcode": "98102",
        "addr:state": "WA",
        "addr:street": "Summit Avenue East",
        "amenity": "restaurant",
        "branch": "Capitol Hill",
        "contact:facebook": "cornellyseattle",
        "contact:instagram": "cornellyseattle",
        "cuisine": "italian;pizza",
        "name": "Cornelly",
        "opening_hours": "Su-Th 17:00-21:00; Fr-Sa 17:00-22:00",
        "website": "https://www.cornellyseattle.com/"
      },
      "geometry": {
        "type": "Point",
        "coordinates": [
          -122.325473,
          47.6244717
        ]
      },
      "id": "node/2423558933"
    },
    {
      "type": "Feature",
      "properties": {
        "@id": "node/2429578919",
        "addr:city": "Seattle",
        "addr:housenumber": "4525",
        "addr:postcode": "98108",
        "addr:state": "WA",
        "addr:street": "Martin Luther King Junior Way South",
        "amenity": "restaurant",
        "check_date": "2024-06-04",
        "cuisine": "thai;bubble_tea",
        "level": "0",
        "name": "Chandala Thai",
        "opening_hours": "Mo off; Tu-Fr 11:00-20:00; Sa-Su 12:00-20:00",
        "outdoor_seating": "no",
        "payment:cash": "yes",
        "payment:contactless": "yes",
        "payment:credit_cards": "yes",
        "payment:debit_cards": "yes",
        "phone": "+1-206-585-1225",
        "source": "King County GIS;data.seattle.gov",
        "website": "https://www.chandalathaicuisine.com"
      },
      "geometry": {
        "type": "Point",
        "coordinates": [
          -122.2944394,
          47.5618518
        ]
      },
      "id": "node/2429578919"
    },
    {
      "type": "Feature",
      "properties": {
        "@id": "node/2430646456",
        "addr:city": "Seattle",
        "addr:housenumber": "5101",
        "addr:postcode": "98105",
        "addr:street": "25th Avenue Northeast",
        "addr:unit": "2-3",
        "amenity": "restaurant",
        "check_date": "2025-11-23",
        "cuisine": "italian",
        "name": "Mamma Melina",
        "website": "https://www.mammamelina.com/"
      },
      "geometry": {
        "type": "Point",
        "coordinates": [
          -122.3008401,
          47.6664704
        ]
      },
      "id": "node/2430646456"
    },
    {
      "type": "Feature",
      "properties": {
        "@id": "node/2434503884",
        "addr:city": "Seattle",
        "addr:country": "US",
        "addr:housenumber": "1201",
        "addr:postcode": "98115",
        "addr:state": "WA",
        "addr:street": "Northeast 65th Street",
        "amenity": "restaurant",
        "check_date": "2025-11-22",
        "cuisine": "italian",
        "level": "0",
        "name": "Due Cucina",
        "opening_hours": "11:00-21:00",
        "payment:cash": "yes",
        "payment:credit_cards": "yes",
        "payment:debit_cards": "yes",
        "website": "https://duecucina.com",
        "wheelchair": "yes"
      },
      "geometry": {
        "type": "Point",
        "coordinates": [
          -122.3155089,
          47.6756922
        ]
      },
      "id": "node/2434503884"
    },
    {
      "type": "Feature",
      "properties": {
        "@id": "node/2459612874",
        "addr:city": "Seattle",
        "addr:housenumber": "9413",
        "addr:postcode": "98106",
        "addr:state": "WA",
        "addr:street": "16th Avenue Southwest",
        "amenity": "restaurant",
        "check_date": "2025-10-19",
        "cuisine": "asian;chinese;thai",
        "name": "Young's Restaurant",
        "source": "King County GIS;data.seattle.gov"
      },
      "geometry": {
        "type": "Point",
        "coordinates": [
          -122.3553714,
          47.5187113
        ]
      },
      "id": "node/2459612874"
    },
    {
      "type": "Feature",
      "properties": {
        "@id": "node/2461755974",
        "addr:city": "Seattle",
        "addr:country": "US",
        "addr:housenumber": "323",
        "addr:postcode": "98125",
        "addr:state": "WA",
        "addr:street": "Northeast Thornton Place",
        "amenity": "restaurant",
        "check_date": "2025-09-18",
        "cuisine": "thai",
        "name": "Thai Fusion Bistro",
        "opening_hours": "Mo-Th 11:00-21:00; Fr 11:00-22:00; Sa 12:00-22:00; Su 12:00-21:00",
        "website": "http://thaifusionbistro.com"
      },
      "geometry": {
        "type": "Point",
        "coordinates": [
          -122.324434,
          47.7025685
        ]
      },
      "id": "node/2461755974"
    },
    {
      "type": "Feature",
      "properties": {
        "@id": "node/2462270122",
        "addr:city": "Seattle",
        "addr:housenumber": "12343",
        "addr:postcode": "98125",
        "addr:street": "Lake City Way Northeast",
        "amenity": "restaurant",
        "check_date": "2025-10-03",
        "cuisine": "thai",
        "delivery": "yes",
        "diet:vegetarian": "yes",
        "name": "Thai One On",
        "opening_hours": "Mo-Sa 11:30-21:00; Su 12:00-21:00",
        "outdoor_seating": "no",
        "phone": "+1-206-362-6999",
        "source": "King County GIS;data.seattle.gov",
        "takeaway": "yes",
        "website": "http://thaioneonusa.com/"
      },
      "geometry": {
        "type": "Point",
        "coordinates": [
          -122.29588,
          47.7186757
        ]
      },
      "id": "node/2462270122"
    },
    {
      "type": "Feature",
      "properties": {
        "@id": "node/2462428236",
        "addr:city": "Seattle",
        "addr:housenumber": "2812",
        "addr:postcode": "98199",
        "addr:street": "Thorndyke Avenue West",
        "amenity": "restaurant",
        "cuisine": "thai;vietnamese",
        "name": "Time 4 Pho",
        "source": "King County GIS;data.seattle.gov"
      },
      "geometry": {
        "type": "Point",
        "coordinates": [
          -122.3823871,
          47.6454149
        ]
      },
      "id": "node/2462428236"
    },
    {
      "type": "Feature",
      "properties": {
        "@id": "node/2462448956",
        "addr:city": "Seattle",
        "addr:housenumber": "6114",
        "addr:postcode": "98103",
        "addr:street": "Phinney Avenue North",
        "alt_name": "Roy Southern Thai",
        "amenity": "restaurant",
        "check_date": "2025-08-21",
        "cuisine": "thai",
        "name": "Roy",
        "source": "King County GIS;data.seattle.gov",
        "website": "https://roysouthernthai.com"
      },
      "geometry": {
        "type": "Point",
        "coordinates": [
          -122.3541714,
          47.6736166
        ]
      },
      "id": "node/2462448956"
    },
    {
      "type": "Feature",
      "properties": {
        "@id": "node/2464020565",
        "addr:city": "Seattle",
        "addr:housenumber": "3719",
        "addr:postcode": "98105",
        "addr:street": "Northeast 45th Street",
        "amenity": "restaurant",
        "cuisine": "thai",
        "name": "Marlai Fine Thai Cuisine",
        "source": "King County GIS;data.seattle.gov",
        "website": "http://marlaithai.com"
      },
      "geometry": {
        "type": "Point",
        "coordinates": [
          -122.287366,
          47.6611288
        ]
      },
      "id": "node/2464020565"
    },
    {
      "type": "Feature",
      "properties": {
        "@id": "node/2778696020",
        "addr:city": "Seattle",
        "addr:country": "US",
        "addr:housenumber": "2326",
        "addr:postcode": "98121",
        "addr:state": "WA",
        "addr:street": "1st Avenue",
        "amenity": "restaurant",
        "check_date": "2025-04-26",
        "contact:website": "https://limoncellobelltown.com/",
        "cuisine": "italian",
        "diet:gluten_free": "yes",
        "diet:vegetarian": "yes",
        "name": "Limoncello Belltown",
        "takeaway": "yes"
      },
      "geometry": {
        "type": "Point",
        "coordinates": [
          -122.3472584,
          47.6139958
        ]
      },
      "id": "node/2778696020"
    },
    {
      "type": "Feature",
      "properties": {
        "@id": "node/2816499410",
        "addr:city": "Seattle",
        "addr:housenumber": "805",
        "addr:postcode": "98115",
        "addr:state": "WA",
        "addr:street": "Northeast 65th Street",
        "amenity": "restaurant",
        "check_date": "2024-06-05",
        "cuisine": "thai",
        "diet:gluten_free": "yes",
        "diet:vegetarian": "yes",
        "name": "Thaprachan",
        "phone": "+1-206-523-3938",
        "takeaway": "yes",
        "website": "https://www.thaprachanthaicuisine.com/"
      },
      "geometry": {
        "type": "Point",
        "coordinates": [
          -122.3195,
          47.6757117
        ]
      },
      "id": "node/2816499410"
    },
    {
      "type": "Feature",
      "properties": {
        "@id": "node/2882772525",
        "addr:city": "Seattle",
        "addr:housenumber": "7900",
        "addr:postcode": "98103",
        "addr:state": "WA",
        "addr:street": "East Green Lake Drive North",
        "amenity": "restaurant",
        "cuisine": "thai",
        "delivery": "yes",
        "name": "Noi Thai Cuisine",
        "opening_hours": "Mo-Th 11:00-21:30; Fr 11:00-23:00; Sa 09:30-23:00; Su 09:30-21:30",
        "phone": "+1-206-537-3777",
        "takeaway": "yes",
        "website": "https://www.greenlake.noithaicuisine.com/"
      },
      "geometry": {
        "type": "Point",
        "coordinates": [
          -122.336932,
          47.685773
        ]
      },
      "id": "node/2882772525"
    },
    {
      "type": "Feature",
      "properties": {
        "@id": "node/2921333902",
        "addr:city": "Seattle",
        "addr:housenumber": "2316",
        "addr:postcode": "98115",
        "addr:state": "WA",
        "addr:street": "Northeast 65th Street",
        "addr:unit": "Suite 101",
        "amenity": "restaurant",
        "cuisine": "thai",
        "name": "Isarn Thai Soul Kitchen",
        "opening_hours": "Mo-Su 11:00-21:00"
      },
      "geometry": {
        "type": "Point",
        "coordinates": [
          -122.3020897,
          47.6758953
        ]
      },
      "id": "node/2921333902"
    },
    {
      "type": "Feature",
      "properties": {
        "@id": "node/2984815350",
        "addr:city": "Seattle",
        "addr:housenumber": "11001",
        "addr:postcode": "98125",
        "addr:street": "35th Avenue Northeast",
        "amenity": "restaurant",
        "cuisine": "italian",
        "name": "Santorini Pizza & Pasta",
        "opening_hours": "Mo-Sa 16:00-21:00",
        "source:addr:id": "264314"
      },
      "geometry": {
        "type": "Point",
        "coordinates": [
          -122.2912673,
          47.7085644
        ]
      },
      "id": "node/2984815350"
    },
    {
      "type": "Feature",
      "properties": {
        "@id": "node/3006168197",
        "addr:city": "Seattle",
        "addr:country": "US",
        "addr:housenumber": "1222",
        "addr:postcode": "98122",
        "addr:state": "WA",
        "addr:street": "East Pine Street",
        "amenity": "restaurant",
        "check_date": "2025-03-19",
        "cuisine": "thai",
        "diet:vegetarian": "yes",
        "indoor_seating": "yes",
        "name": "Manao",
        "opening_hours": "Mo-Fr 11:00-22:00; Sa 12:00-22:00; Su 12:00-21:00",
        "outdoor_seating": "sidewalk",
        "toilets": "yes",
        "toilets:wheelchair": "yes",
        "website": "http://manaothai.com",
        "wheelchair": "yes"
      },
      "geometry": {
        "type": "Point",
        "coordinates": [
          -122.3157792,
          47.6154249
        ]
      },
      "id": "node/3006168197"
    },
    {
      "type": "Feature",
      "properties": {
        "@id": "node/3006168291",
        "addr:city": "Seattle",
        "addr:housenumber": "2001",
        "addr:postcode": "98121",
        "addr:state": "WA",
        "addr:street": "Westlake Avenue",
        "amenity": "restaurant",
        "cuisine": "italian",
        "name": "Cinque Terre",
        "source:addr:id": "929079",
        "website": "https://www.cinqueterreseattle.com/",
        "wheelchair": "yes"
      },
      "geometry": {
        "type": "Point",
        "coordinates": [
          -122.3380756,
          47.615083
        ]
      },
      "id": "node/3006168291"
    },
    {
      "type": "Feature",
      "properties": {
        "@id": "node/3163408164",
        "addr:city": "Seattle",
        "addr:housenumber": "6421",
        "addr:postcode": "98107",
        "addr:street": "15th Avenue Northwest",
        "addr:unit": "A",
        "amenity": "restaurant",
        "check_date": "2024-09-03",
        "cuisine": "thai",
        "name": "Bonsemi"
      },
      "geometry": {
        "type": "Point",
        "coordinates": [
          -122.37662,
          47.6758131
        ]
      },
      "id": "node/3163408164"
    },
    {
      "type": "Feature",
      "properties": {
        "@id": "node/3311160767",
        "addr:city": "Seattle",
        "addr:housenumber": "401",
        "addr:postcode": "98115",
        "addr:street": "Northeast Ravenna Boulevard",
        "addr:unit": "C",
        "amenity": "restaurant",
        "check_date": "2025-11-22",
        "cuisine": "thai",
        "internet_access": "no",
        "name": "Thai Ocean",
        "opening_hours": "Mo-Fr 11:30-21:30; Sa 12:00-22:00; Su 12:00-21:30",
        "payment:american_express": "yes",
        "payment:discover_card": "yes",
        "payment:mastercard": "yes",
        "payment:visa": "yes",
        "phone": "+1-206-526-5023",
        "website": "http://www.thaiocean.com/",
        "wheelchair": "yes"
      },
      "geometry": {
        "type": "Point",
        "coordinates": [
          -122.3251274,
          47.678306
        ]
      },
      "id": "node/3311160767"
    },
    {
      "type": "Feature",
      "properties": {
        "@id": "node/3325985935",
        "addr:unit": "C",
        "amenity": "restaurant",
        "checked_exists:date": "2015-08-11",
        "cuisine": "thai",
        "name": "Thai Greenwood",
        "phone": "+1-206-361-9999"
      },
      "geometry": {
        "type": "Point",
        "coordinates": [
          -122.3560663,
          47.733747
        ]
      },
      "id": "node/3325985935"
    },
    {
      "type": "Feature",
      "properties": {
        "@id": "node/3345276641",
        "addr:city": "Seattle",
        "addr:housenumber": "4501",
        "addr:postcode": "98103",
        "addr:street": "Interlake Avenue North",
        "amenity": "restaurant",
        "check_date": "2023-06-11",
        "cuisine": "italian",
        "diet:vegetarian": "yes",
        "name": "Olympia Pizza & Spaghetti House II",
        "opening_hours": "Mo-Th 11:00-22:00; Fr-Sa 11:00-23:00",
        "phone": "+1-206-633-3655",
        "source": "King County GIS;data.seattle.gov;bing;knowledge",
        "website": "http://www.olypizza.net/"
      },
      "geometry": {
        "type": "Point",
        "coordinates": [
          -122.3408364,
          47.661518
        ]
      },
      "id": "node/3345276641"
    },
    {
      "type": "Feature",
      "properties": {
        "@id": "node/3404835497",
        "addr:city": "Seattle",
        "addr:housenumber": "1636",
        "addr:postcode": "98144",
        "addr:state": "WA",
        "addr:street": "South McClellan Street",
        "addr:unit": "B",
        "amenity": "restaurant",
        "check_date": "2024-02-03",
        "cuisine": "italian;greek",
        "name": "Niko's Gyros",
        "opening_hours": "Mo-Sa 11:30-20:00",
        "phone": "+1-206-397-4986"
      },
      "geometry": {
        "type": "Point",
        "coordinates": [
          -122.3111519,
          47.5787592
        ]
      },
      "id": "node/3404835497"
    },
    {
      "type": "Feature",
      "properties": {
        "@id": "node/3700162126",
        "addr:city": "Seattle",
        "addr:housenumber": "340",
        "addr:postcode": "98112",
        "addr:street": "15th Avenue East",
        "addr:unit": "210",
        "amenity": "restaurant",
        "check_date": "2025-03-14",
        "cuisine": "thai",
        "name": "Bites of Bangkok",
        "opening_hours": "We-Su 17:00-01:00",
        "payment:cash": "yes",
        "payment:credit_cards": "yes",
        "payment:debit_cards": "yes",
        "phone": "+1-206-268-0823",
        "source": "King County GIS;data.seattle.gov",
        "website": "https://bitesofbangkok.com/"
      },
      "geometry": {
        "type": "Point",
        "coordinates": [
          -122.312495,
          47.6216137
        ]
      },
      "id": "node/3700162126"
    },
    {
      "type": "Feature",
      "properties": {
        "@id": "node/3723805732",
        "addr:city": "Seattle",
        "addr:housenumber": "1530",
        "addr:postcode": "98101",
        "addr:state": "WA",
        "addr:street": "Post Alley",
        "addr:unit": "6",
        "amenity": "restaurant",
        "check_date": "2026-02-04",
        "cuisine": "thai",
        "internet_access": "no",
        "name": "Jasmine Thai Restaurant",
        "phone": "+1-206-382-9899",
        "website": "http://jasminethaiseattle.com"
      },
      "geometry": {
        "type": "Point",
        "coordinates": [
          -122.3411699,
          47.6094671
        ]
      },
      "id": "node/3723805732"
    },
    {
      "type": "Feature",
      "properties": {
        "@id": "node/3994579957",
        "addr:city": "Seattle",
        "addr:country": "US",
        "addr:state": "WA",
        "amenity": "restaurant",
        "brand": "Buca di Beppo",
        "brand:wikidata": "Q4982340",
        "check_date": "2025-03-12",
        "cuisine": "italian",
        "indoor_seating": "yes",
        "name": "Buca di Beppo",
        "opening_hours": "Mo-Th 11:00-22:00; Fr,Sa 11:00-23:00; Su 11:00-21:00",
        "outdoor_seating": "no",
        "phone": "+1-206-244-2288",
        "website": "https://www.bucadibeppo.com/"
      },
      "geometry": {
        "type": "Point",
        "coordinates": [
          -122.3389449,
          47.6258467
        ]
      },
      "id": "node/3994579957"
    },
    {
      "type": "Feature",
      "properties": {
        "@id": "node/4139477621",
        "addr:city": "Seattle",
        "addr:housenumber": "5032",
        "addr:postcode": "98118",
        "addr:state": "WA",
        "addr:street": "Wilson Avenue South",
        "amenity": "restaurant",
        "check_date": "2026-02-14",
        "cuisine": "italian",
        "delivery": "no",
        "indoor_seating": "yes",
        "name": "Pizzuto's Italian Cafe",
        "opening_hours": "Th-Sa 17:30-20:30",
        "outdoor_seating": "yes",
        "takeaway": "yes"
      },
      "geometry": {
        "type": "Point",
        "coordinates": [
          -122.2701089,
          47.5559338
        ]
      },
      "id": "node/4139477621"
    },
    {
      "type": "Feature",
      "properties": {
        "@id": "node/4354827091",
        "addr:city": "Seattle",
        "addr:housenumber": "600",
        "addr:postcode": "98101",
        "addr:state": "WA",
        "addr:street": "Pine Street",
        "addr:unit": "406",
        "amenity": "restaurant",
        "cuisine": "thai",
        "level": "4",
        "name": "Seng Tong Thai",
        "opening_hours": "Su-Th 11:00-21:30; Fr-Sa 11:00-22:30",
        "phone": "+1-206-262-9888",
        "website": "https://www.sengtongthaiseattle.com/"
      },
      "geometry": {
        "type": "Point",
        "coordinates": [
          -122.3354984,
          47.6128009
        ]
      },
      "id": "node/4354827091"
    },
    {
      "type": "Feature",
      "properties": {
        "@id": "node/4458653389",
        "addr:city": "Seattle",
        "addr:housenumber": "5963",
        "addr:postcode": "98108",
        "addr:street": "Corson Avenue South",
        "addr:unit": "166",
        "amenity": "restaurant",
        "check_date": "2024-11-25",
        "cuisine": "thai",
        "name": "Khaosan Road Thai Cuisine",
        "phone": "+1-206-764-6002"
      },
      "geometry": {
        "type": "Point",
        "coordinates": [
          -122.3222788,
          47.547843
        ]
      },
      "id": "node/4458653389"
    },
    {
      "type": "Feature",
      "properties": {
        "@id": "node/4573564195",
        "addr:city": "Seattle",
        "addr:housenumber": "93",
        "addr:postcode": "98101",
        "addr:state": "WA",
        "addr:street": "Pike Street",
        "amenity": "restaurant",
        "check_date": "2024-02-24",
        "cuisine": "italian",
        "name": "Il Bistro"
      },
      "geometry": {
        "type": "Point",
        "coordinates": [
          -122.340197,
          47.6086273
        ]
      },
      "id": "node/4573564195"
    },
    {
      "type": "Feature",
      "properties": {
        "@id": "node/4840570417",
        "addr:city": "Seattle",
        "addr:housenumber": "8530",
        "addr:postcode": "98103",
        "addr:street": "Greenwood Avenue North",
        "amenity": "restaurant",
        "cuisine": "thai",
        "name": "Laem Buri",
        "opening_hours": "Mo-Fr 11:00-15:00,16:00-21:00; Sa 12:00-21:00; Su 16:00-21:00",
        "outdoor_seating": "no",
        "source": "King County GIS;data.seattle.gov",
        "takeaway": "yes",
        "website": "https://www.laemburi.com/"
      },
      "geometry": {
        "type": "Point",
        "coordinates": [
          -122.355096,
          47.691134
        ]
      },
      "id": "node/4840570417"
    },
    {
      "type": "Feature",
      "properties": {
        "@id": "node/4867020928",
        "addr:city": "Seattle",
        "addr:housenumber": "1818",
        "addr:postcode": "98122",
        "addr:state": "WA",
        "addr:street": "East Madison Street",
        "amenity": "restaurant",
        "cuisine": "thai",
        "delivery": "yes",
        "name": "Thud Suan Kitchen & Bar",
        "opening_hours": "Mo-Fr 11:30-15:00,16:00-22:00; Sa 16:00-22:00; Su 16:00-21:30",
        "phone": "+1-206-556-4849",
        "takeaway": "yes",
        "website": "http://thudsuanthai.com/"
      },
      "geometry": {
        "type": "Point",
        "coordinates": [
          -122.307612,
          47.6168326
        ]
      },
      "id": "node/4867020928"
    },
    {
      "type": "Feature",
      "properties": {
        "@id": "node/4919958621",
        "addr:city": "Seattle",
        "addr:housenumber": "1919",
        "addr:postcode": "98101",
        "addr:state": "WA",
        "addr:street": "Post Alley",
        "amenity": "restaurant",
        "cuisine": "italian",
        "internet_access": "wlan",
        "name": "The Pink Door",
        "name:fi": "The Pink Door",
        "website": "https://www.thepinkdoor.net",
        "wikidata": "Q113372098"
      },
      "geometry": {
        "type": "Point",
        "coordinates": [
          -122.3425312,
          47.6103875
        ]
      },
      "id": "node/4919958621"
    },
    {
      "type": "Feature",
      "properties": {
        "@id": "node/4993634447",
        "amenity": "restaurant",
        "cuisine": "italian",
        "diet:vegan": "no",
        "diet:vegetarian": "yes",
        "name": "Tulio",
        "opening_hours": "We,Th 17:00-21:00; Fr,Sa 17:00-22:00",
        "wheelchair": "yes"
      },
      "geometry": {
        "type": "Point",
        "coordinates": [
          -122.3324164,
          47.6074385
        ]
      },
      "id": "node/4993634447"
    },
    {
      "type": "Feature",
      "properties": {
        "@id": "node/5099618022",
        "addr:city": "Seattle",
        "addr:housenumber": "504",
        "addr:postcode": "98104",
        "addr:state": "WA",
        "addr:street": "5th Avenue South",
        "addr:unit": "118",
        "amenity": "restaurant",
        "check_date": "2026-02-15",
        "contact:facebook": "100090040851807",
        "contact:instagram": "ejaepakmor",
        "cuisine": "noodles;thai",
        "diet:vegetarian": "yes",
        "email": "Eatatejae@gmail.com",
        "internet_access": "wlan",
        "internet_access:fee": "customers",
        "internet_access:ssid": "E-Jae Guest",
        "name": "E-Jae Pak Mor",
        "opening_hours": "Su-Th 11:00-19:30; Fr-Sa 11:00-20:00",
        "outdoor_seating": "no",
        "payment:apple_pay": "yes",
        "payment:contactless": "yes",
        "payment:credit_cards": "yes",
        "payment:debit_cards": "yes",
        "phone": "+1-206-694-3561",
        "takeaway": "yes",
        "toilets": "yes",
        "toilets:wheelchair": "yes",
        "website": "https://www.ejaefoods.com",
        "website:menu": "https://www.ejaefoods.com/blank-2",
        "wheelchair": "yes"
      },
      "geometry": {
        "type": "Point",
        "coordinates": [
          -122.327506,
          47.5976328
        ]
      },
      "id": "node/5099618022"
    },
    {
      "type": "Feature",
      "properties": {
        "@id": "node/5102379625",
        "addr:city": "Seattle",
        "addr:country": "US",
        "addr:housenumber": "2411",
        "addr:postcode": "98121",
        "addr:state": "WA",
        "addr:street": "2nd Avenue",
        "alt_name": "La Vita e Bella",
        "amenity": "restaurant",
        "check_date": "2025-04-26",
        "contact:website": "https://www.lavitaebellarestaurant.com/",
        "cuisine": "italian",
        "level": "0",
        "level:ref": "1",
        "name": "La Vita √© Bella",
        "outdoor_seating": "yes",
        "start_date": "1999"
      },
      "geometry": {
        "type": "Point",
        "coordinates": [
          -122.3475186,
          47.614919
        ]
      },
      "id": "node/5102379625"
    },
    {
      "type": "Feature",
      "properties": {
        "@id": "node/5152641325",
        "addr:city": "Seattle",
        "addr:housenumber": "1806",
        "addr:postcode": "98122",
        "addr:state": "WA",
        "addr:street": "12th Avenue",
        "addr:unit": "100",
        "amenity": "restaurant",
        "cuisine": "thai;hotpot",
        "name": "Morfire",
        "name:en": "Morfire",
        "phone": "+1-206-829-8293",
        "website": "http://www.morfireseattle.com/"
      },
      "geometry": {
        "type": "Point",
        "coordinates": [
          -122.316731,
          47.6179302
        ]
      },
      "id": "node/5152641325"
    },
    {
      "type": "Feature",
      "properties": {
        "@id": "node/5238761507",
        "addr:city": "Seattle",
        "addr:housenumber": "5210",
        "addr:postcode": "98105",
        "addr:street": "Roosevelt Way Northeast",
        "addr:unit": "B",
        "amenity": "restaurant",
        "check_date": "2023-09-29",
        "cuisine": "thai",
        "diet:vegetarian": "yes",
        "name": "Amazing Thai Cuisine",
        "phone": "+1-206-528-0102",
        "source": "King County GIS;data.seattle.gov"
      },
      "geometry": {
        "type": "Point",
        "coordinates": [
          -122.3171951,
          47.6668189
        ]
      },
      "id": "node/5238761507"
    },
    {
      "type": "Feature",
      "properties": {
        "@id": "node/5502253231",
        "addr:city": "Seattle",
        "addr:housenumber": "5240",
        "addr:postcode": "98105",
        "addr:state": "WA",
        "addr:street": "University Way Northeast",
        "addr:unit": "A",
        "amenity": "restaurant",
        "contact:facebook": "https://www.facebook.com/ArayasVegetarianPlace",
        "contact:foursquare": "https://foursquare.com/arayasvegtrnplc",
        "contact:instagram": "https://www.instagram.com/arayasplace",
        "contact:tripadvisor": "https://www.tripadvisor.com/Restaurant_Review-g60878-d432193-Reviews-Araya_s_Place-Seattle_Washington.html",
        "contact:twitter": "https://www.twitter.com/ArayasVegtrnPlc",
        "contact:website": "https://www.arayasplace.com",
        "contact:yelp": "https://www.yelp.com/biz/arayas-place-seattle-2",
        "cuisine": "thai",
        "delivery": "yes",
        "diet:vegan": "only",
        "name": "Araya's Place",
        "opening_hours": "Mo-Th,Su 11:30-15:00,16:30-21:00; Fr-Sa 11:30-15:00,16:30-21:30",
        "outdoor_seating": "no",
        "phone": "+1-206-524-4332",
        "takeaway": "yes"
      },
      "geometry": {
        "type": "Point",
        "coordinates": [
          -122.312813,
          47.6676581
        ]
      },
      "id": "node/5502253231"
    },
    {
      "type": "Feature",
      "properties": {
        "@id": "node/5681016321",
        "addr:city": "Seattle",
        "addr:housenumber": "93",
        "addr:postcode": "98101",
        "addr:street": "Pike Street",
        "amenity": "restaurant",
        "check_date": "2024-02-24",
        "contact:facebook": "pastacasalingaseattle",
        "contact:instagram": "pastacasalinga",
        "cuisine": "italian;pasta",
        "email": "info@pastacasalingaseattle.com",
        "name": "Pasta Casalinga",
        "opening_hours": "Mo-Su 11:00-16:45",
        "phone": "+1-206-445-2987",
        "self_service": "no",
        "website": "https://pastacasalingaseattle.com"
      },
      "geometry": {
        "type": "Point",
        "coordinates": [
          -122.3402323,
          47.6085368
        ]
      },
      "id": "node/5681016321"
    },
    {
      "type": "Feature",
      "properties": {
        "@id": "node/5695379350",
        "addr:city": "Seattle",
        "addr:housenumber": "4909",
        "addr:postcode": "98118",
        "addr:street": "Rainier Avenue South",
        "addr:unit": "102",
        "amenity": "restaurant",
        "cuisine": "thai",
        "name": "Spice Room",
        "opening_hours": "Su-Th 16:00-21:30; Fr,Sa 16:00-20:30",
        "phone": "+1-206-725-7090",
        "source": "King County GIS;data.seattle.gov"
      },
      "geometry": {
        "type": "Point",
        "coordinates": [
          -122.2850905,
          47.5575069
        ]
      },
      "id": "node/5695379350"
    },
    {
      "type": "Feature",
      "properties": {
        "@id": "node/5731571425",
        "addr:city": "Seattle",
        "addr:housenumber": "2301",
        "addr:postcode": "98112",
        "addr:state": "WA",
        "addr:street": "East Madison Street",
        "amenity": "restaurant",
        "check_date": "2024-02-03",
        "cuisine": "thai",
        "name": "Kin Dee",
        "opening_hours": "Tu-Th 12:00-21:00; Fr-Sa 12:00-22:00; Su 12:00-21:00",
        "phone": "+1-206-453-5514",
        "website": "https://www.kindeeseattle.com/"
      },
      "geometry": {
        "type": "Point",
        "coordinates": [
          -122.302419,
          47.6191297
        ]
      },
      "id": "node/5731571425"
    },
    {
      "type": "Feature",
      "properties": {
        "@id": "node/5908595011",
        "addr:housenumber": "1313",
        "addr:street": "Northeast 43rd Street",
        "amenity": "restaurant",
        "contact:facebook": "Mark-Thai-Food-Box-577259816015338",
        "contact:instagram": "markthaifoodbox",
        "contact:twitter": "thaicurrysimple",
        "cuisine": "thai",
        "name": "Mark Thai Food Box",
        "opening_hours": "Mo-Fr 12:00-19:00",
        "phone": "+1-206-432-5902",
        "website": "https://udistrictseattle.com/business/markthaifoodbox"
      },
      "geometry": {
        "type": "Point",
        "coordinates": [
          -122.3136629,
          47.659694
        ]
      },
      "id": "node/5908595011"
    },
    {
      "type": "Feature",
      "properties": {
        "@id": "node/6026092785",
        "addr:city": "Seattle",
        "addr:housenumber": "1126",
        "addr:postcode": "98122",
        "addr:street": "34th Avenue",
        "amenity": "restaurant",
        "cuisine": "italian",
        "name": "Vendemmia"
      },
      "geometry": {
        "type": "Point",
        "coordinates": [
          -122.2891364,
          47.6124437
        ]
      },
      "id": "node/6026092785"
    },
    {
      "type": "Feature",
      "properties": {
        "@id": "node/6026092985",
        "addr:city": "Seattle",
        "addr:housenumber": "4147",
        "addr:postcode": "98116",
        "addr:state": "WA",
        "addr:street": "California Avenue Southwest",
        "amenity": "restaurant",
        "check_date": "2025-04-12",
        "cuisine": "italian",
        "name": "Raccolto",
        "website": "https://www.raccoltoseattle.com"
      },
      "geometry": {
        "type": "Point",
        "coordinates": [
          -122.3869972,
          47.5652076
        ]
      },
      "id": "node/6026092985"
    },
    {
      "type": "Feature",
      "properties": {
        "@id": "node/6148538788",
        "amenity": "restaurant",
        "cuisine": "italian",
        "indoor_seating": "yes",
        "name": "Andare",
        "outdoor_seating": "no",
        "smoking": "no"
      },
      "geometry": {
        "type": "Point",
        "coordinates": [
          -122.3343062,
          47.614631
        ]
      },
      "id": "node/6148538788"
    },
    {
      "type": "Feature",
      "properties": {
        "@id": "node/6489368247",
        "addr:city": "Seattle",
        "addr:housenumber": "2717",
        "addr:postcode": "98116",
        "addr:street": "61st Avenue Southwest",
        "amenity": "restaurant",
        "cuisine": "italian",
        "name": "Il Nido",
        "website": "https://ilnidoseattle.com"
      },
      "geometry": {
        "type": "Point",
        "coordinates": [
          -122.4110022,
          47.5785646
        ]
      },
      "id": "node/6489368247"
    },
    {
      "type": "Feature",
      "properties": {
        "@id": "node/6634276142",
        "addr:city": "Seattle",
        "addr:housenumber": "3627",
        "addr:postcode": "98103",
        "addr:street": "Stone Way North",
        "addr:unit": "B",
        "amenity": "restaurant",
        "check_date": "2024-04-20",
        "cuisine": "italian",
        "name": "Tavol√†ta",
        "opening_hours": "We-Su 16:00-22:00",
        "operator": "Ethan Stowell",
        "outdoor_seating": "yes",
        "phone": "+1-206-456-2666",
        "reservation": "yes",
        "takeaway": "yes",
        "website": "https://www.ethanstowellrestaurants.com/locations/tavolata-stone-way/",
        "wheelchair": "yes"
      },
      "geometry": {
        "type": "Point",
        "coordinates": [
          -122.3429128,
          47.6514721
        ]
      },
      "id": "node/6634276142"
    },
    {
      "type": "Feature",
      "properties": {
        "@id": "node/7004876371",
        "addr:city": "Seattle",
        "addr:housenumber": "2609",
        "addr:postcode": "98144",
        "addr:state": "WA",
        "addr:street": "South McClellan Street",
        "amenity": "restaurant",
        "cuisine": "thai",
        "name": "Thai Recipe",
        "opening_hours": "Mo-Sa 11:30-21:30; Su 16:00-21:30",
        "parking": "surface",
        "phone": "+1-206-723-6165",
        "website": "https://thaireciperestaurant.com/"
      },
      "geometry": {
        "type": "Point",
        "coordinates": [
          -122.2988175,
          47.5780234
        ]
      },
      "id": "node/7004876371"
    },
    {
      "type": "Feature",
      "properties": {
        "@id": "node/7184847748",
        "addr:city": "Seattle",
        "addr:housenumber": "5605",
        "addr:postcode": "98106",
        "addr:street": "Delridge Way Southwest",
        "amenity": "restaurant",
        "cuisine": "italian",
        "name": "Romano Pizza & Pasta",
        "wheelchair": "yes"
      },
      "geometry": {
        "type": "Point",
        "coordinates": [
          -122.363215,
          47.5516834
        ]
      },
      "id": "node/7184847748"
    },
    {
      "type": "Feature",
      "properties": {
        "@id": "node/7654265420",
        "addr:city": "Seattle",
        "addr:housenumber": "1429",
        "addr:postcode": "98122",
        "addr:street": "12th Avenue",
        "amenity": "restaurant",
        "check_date": "2024-07-10",
        "cuisine": "italian",
        "name": "Osteria la Spiga",
        "website": "https://www.laspiga.com",
        "wikidata": "Q115805710"
      },
      "geometry": {
        "type": "Point",
        "coordinates": [
          -122.3170987,
          47.6137667
        ]
      },
      "id": "node/7654265420"
    },
    {
      "type": "Feature",
      "properties": {
        "@id": "node/7965331048",
        "amenity": "restaurant",
        "check_date": "2025-10-03",
        "cuisine": "thai",
        "indoor_seating": "yes",
        "name": "Prayathai Cuisine",
        "outdoor_seating": "no"
      },
      "geometry": {
        "type": "Point",
        "coordinates": [
          -122.3058238,
          47.6935146
        ]
      },
      "id": "node/7965331048"
    },
    {
      "type": "Feature",
      "properties": {
        "@id": "node/7997435434",
        "addr:city": "Seattle",
        "addr:country": "US",
        "addr:housenumber": "412",
        "addr:postcode": "98122",
        "addr:state": "WA",
        "addr:street": "Broadway",
        "addr:unit": "102",
        "amenity": "restaurant",
        "check_date": "2025-12-26",
        "contact:phone": "+1 206-257-1050",
        "cuisine": "noodle;thai",
        "diet:vegetarian": "yes",
        "name": "Thai Lucene"
      },
      "geometry": {
        "type": "Point",
        "coordinates": [
          -122.3205276,
          47.6060965
        ]
      },
      "id": "node/7997435434"
    },
    {
      "type": "Feature",
      "properties": {
        "@id": "node/8509144706",
        "addr:city": "Seattle",
        "addr:housenumber": "1480",
        "addr:postcode": "98117",
        "addr:state": "WA",
        "addr:street": "Northwest 70th Street",
        "amenity": "restaurant",
        "cuisine": "thai",
        "name": "Tangerine Thai",
        "website": "https://www.thetangerinethai.com"
      },
      "geometry": {
        "type": "Point",
        "coordinates": [
          -122.376346,
          47.679633
        ]
      },
      "id": "node/8509144706"
    },
    {
      "type": "Feature",
      "properties": {
        "@id": "node/9161502121",
        "addr:unit": "B",
        "amenity": "restaurant",
        "cuisine": "thai",
        "name": "Song Phang Kong"
      },
      "geometry": {
        "type": "Point",
        "coordinates": [
          -122.318851,
          47.599043
        ]
      },
      "id": "node/9161502121"
    },
    {
      "type": "Feature",
      "properties": {
        "@id": "node/10573677915",
        "addr:city": "Seattle",
        "addr:housenumber": "1121",
        "addr:postcode": "98122",
        "addr:street": "East Pike Street",
        "amenity": "restaurant",
        "check_date": "2026-02-12",
        "cuisine": "thai",
        "internet_access": "no",
        "name": "Bai Tong Thai Street Cafe",
        "opening_hours": "Mo-Th,Su 11:30-15:00,16:00-22:00; Fr-Sa 11:30-15:00,16:00-23:00",
        "payment:contactless": "yes",
        "payment:discover_card": "yes",
        "payment:jcb": "yes",
        "payment:mastercard": "yes",
        "payment:unionpay": "yes",
        "payment:visa": "yes",
        "phone": "+1-206-787-8448",
        "website": "https://www.baitongthaistreetcafe.com/",
        "wheelchair": "yes"
      },
      "geometry": {
        "type": "Point",
        "coordinates": [
          -122.3171112,
          47.6139854
        ]
      },
      "id": "node/10573677915"
    },
    {
      "type": "Feature",
      "properties": {
        "@id": "node/11142039596",
        "addr:city": "Seattle",
        "addr:housenumber": "4142",
        "addr:postcode": "98105",
        "addr:state": "WA",
        "addr:street": "Brooklyn Avenue Northeast",
        "addr:unit": "105",
        "amenity": "restaurant",
        "check_date": "2025-11-21",
        "cuisine": "thai",
        "diet:lactose_free": "yes",
        "diet:pescetarian": "yes",
        "diet:vegan": "yes",
        "diet:vegetarian": "yes",
        "name": "Little Thai",
        "opening_hours": "Mo-Fr 11:00-21:00; Sa 12:00-21:00",
        "outdoor_seating": "no",
        "phone": "+1-206-548-8009",
        "takeaway": "yes",
        "toilets": "yes",
        "website": "http://littlethaiseattle.com"
      },
      "geometry": {
        "type": "Point",
        "coordinates": [
          -122.3139732,
          47.6582148
        ]
      },
      "id": "node/11142039596"
    },
    {
      "type": "Feature",
      "properties": {
        "@id": "node/11469908769",
        "addr:city": "Seattle",
        "addr:housenumber": "7009",
        "addr:postcode": "98103",
        "addr:street": "Phinney Avenue North",
        "addr:unit": "F",
        "amenity": "restaurant",
        "check_date": "2025-04-02",
        "cuisine": "italian",
        "name": "Lioness",
        "opening_hours": "16:00-22:00",
        "outdoor_seating": "yes",
        "website": "https://www.lionessseattle.com"
      },
      "geometry": {
        "type": "Point",
        "coordinates": [
          -122.3557925,
          47.6798044
        ]
      },
      "id": "node/11469908769"
    },
    {
      "type": "Feature",
      "properties": {
        "@id": "node/11897293448",
        "addr:city": "Seattle",
        "addr:housenumber": "4106",
        "addr:postcode": "98103",
        "addr:street": "Stone Way North",
        "addr:unit": "104",
        "amenity": "restaurant",
        "cuisine": "italian;pasta;regional",
        "email": "info@haerfestseattle.com",
        "name": "Haerfest",
        "opening_hours": "17:00-22:00",
        "outdoor_seating": "no",
        "phone": "+1-206-582-1005",
        "reservation": "yes",
        "source": "King County GIS",
        "website": "https://www.haerfestseattle.com/",
        "wheelchair": "yes"
      },
      "geometry": {
        "type": "Point",
        "coordinates": [
          -122.3421044,
          47.6577052
        ]
      },
      "id": "node/11897293448"
    },
    {
      "type": "Feature",
      "properties": {
        "@id": "node/11938792692",
        "amenity": "restaurant",
        "check_date": "2024-05-27",
        "cuisine": "thai",
        "name": "Hanuman",
        "phone": "+1-206-402-6634"
      },
      "geometry": {
        "type": "Point",
        "coordinates": [
          -122.2961196,
          47.6239851
        ]
      },
      "id": "node/11938792692"
    },
    {
      "type": "Feature",
      "properties": {
        "@id": "node/13075254961",
        "amenity": "restaurant",
        "cuisine": "italian",
        "name": "Romi√≥s"
      },
      "geometry": {
        "type": "Point",
        "coordinates": [
          -122.3291542,
          47.6131729
        ]
      },
      "id": "node/13075254961"
    },
    {
      "type": "Feature",
      "properties": {
        "@id": "node/13166856701",
        "addr:city": "Seattle",
        "addr:housenumber": "411",
        "addr:postcode": "98104",
        "addr:street": "1st Avenue South",
        "amenity": "restaurant",
        "cuisine": "italian",
        "level": "1",
        "name": "Il Terrazzo Carmine",
        "opening_hours": "Mo-Fr 11:30-15:00, 17:00-22:00; Sa 17:00-22:00",
        "phone": "+1-206-467-7797",
        "website": "https://www.ilterrazzocarmine.com/",
        "website:menu": "http://ilterrazzocarmine.com/dinner/"
      },
      "geometry": {
        "type": "Point",
        "coordinates": [
          -122.3346466,
          47.5988284
        ]
      },
      "id": "node/13166856701"
    },
    {
      "type": "Feature",
      "properties": {
        "@id": "node/13525122731",
        "amenity": "restaurant",
        "check_date": "2026-02-04",
        "cuisine": "italian",
        "name": "Pizza Pasta Bar"
      },
      "geometry": {
        "type": "Point",
        "coordinates": [
          -122.3411298,
          47.6094177
        ]
      },
      "id": "node/13525122731"
    },
    {
      "type": "Feature",
      "properties": {
        "@id": "node/13545147780",
        "addr:housenumber": "1903",
        "addr:street": "Yale Place East",
        "addr:unit": "108",
        "amenity": "restaurant",
        "check_date": "2026-02-11",
        "cuisine": "thai",
        "name": "Yoksod",
        "phone": "+1-206-420-3134"
      },
      "geometry": {
        "type": "Point",
        "coordinates": [
          -122.3259919,
          47.6359165
        ]
      },
      "id": "node/13545147780"
    },
    {
      "type": "Feature",
      "properties": {
        "@id": "node/13545147783",
        "amenity": "restaurant",
        "check_date": "2026-02-11",
        "cuisine": "thai",
        "name": "Siam"
      },
      "geometry": {
        "type": "Point",
        "coordinates": [
          -122.3256001,
          47.6347192
        ]
      },
      "id": "node/13545147783"
    }
  ]
}